<?xml version="1.0" encoding="UTF-8"?>
<gpx xmlns="http://www.topografix.com/GPX/1/1" xmlns:gpxdata="http://www.cluetrust.com/XML/GPXDATA/1/0" xmlns:xsi="http://www.w3.org/2001/XMLSchema-instance" xsi:schemaLocation="http://www.topografix.com/GPX/1/1 https://www.topografix.com/GPX/1/1/gpx.xsd http://www.cluetrust.com/XML/GPXDATA/1/0 https://www.cluetrust.com/Schemas/gpxdata10.xsd" creator="COROS Wearables" version="1.1">
 <metadata>
  <link href="https://www.coros.com">
   <text>COROS</text>
  </link>
  <time>2026-07-23T16:12:49Z</time>
  <coros_edit>1</coros_edit>
 </metadata>
 <trk>
  <name>30k ROUTE</name>
  <type>running</type>
  <trkseg>
   <trkpt lat="27.7084170" lon="75.4746260">
    <ele>449</ele>
   </trkpt>
   <trkpt lat="27.7084170" lon="75.4746260">
    <ele>449</ele>
   </trkpt>
   <trkpt lat="27.7078950" lon="75.4743930">
    <ele>449</ele>
   </trkpt>
   <trkpt lat="27.7066520" lon="75.4738190">
    <ele>448</ele>
   </trkpt>
   <trkpt lat="27.7048130" lon="75.4728850">
    <ele>449</ele>
   </trkpt>
   <trkpt lat="27.7045550" lon="75.4727360">
    <ele>450</ele>
   </trkpt>
   <trkpt lat="27.7044350" lon="75.4726190">
    <ele>450</ele>
   </trkpt>
   <trkpt lat="27.7039840" lon="75.4716040">
    <ele>451</ele>
   </trkpt>
   <trkpt lat="27.7038460" lon="75.4714730">
    <ele>452</ele>
   </trkpt>
   <trkpt lat="27.7035870" lon="75.4714700">
    <ele>455</ele>
   </trkpt>
   <trkpt lat="27.7028040" lon="75.4714340">
    <ele>455</ele>
   </trkpt>
   <trkpt lat="27.7025240" lon="75.4714650">
    <ele>455</ele>
   </trkpt>
   <trkpt lat="27.7023900" lon="75.4715280">
    <ele>455</ele>
   </trkpt>
   <trkpt lat="27.7020180" lon="75.4718040">
    <ele>458</ele>
   </trkpt>
   <trkpt lat="27.7019030" lon="75.4718670">
    <ele>461</ele>
   </trkpt>
   <trkpt lat="27.7016280" lon="75.4719170">
    <ele>462</ele>
   </trkpt>
   <trkpt lat="27.7013370" lon="75.4719090">
    <ele>464</ele>
   </trkpt>
   <trkpt lat="27.7011910" lon="75.4718490">
    <ele>463</ele>
   </trkpt>
   <trkpt lat="27.7008980" lon="75.4716190">
    <ele>462</ele>
   </trkpt>
   <trkpt lat="27.7008510" lon="75.4715980">
    <ele>462</ele>
   </trkpt>
   <trkpt lat="27.7007610" lon="75.4715570">
    <ele>462</ele>
   </trkpt>
   <trkpt lat="27.7006200" lon="75.4715329">
    <ele>461</ele>
   </trkpt>
   <trkpt lat="27.7002330" lon="75.4716170">
    <ele>456</ele>
   </trkpt>
   <trkpt lat="27.7000380" lon="75.4716640">
    <ele>455</ele>
   </trkpt>
   <trkpt lat="27.6998790" lon="75.4716370">
    <ele>454</ele>
   </trkpt>
   <trkpt lat="27.6996870" lon="75.4715300">
    <ele>456</ele>
   </trkpt>
   <trkpt lat="27.6995160" lon="75.4713450">
    <ele>457</ele>
   </trkpt>
   <trkpt lat="27.6991460" lon="75.4707500">
    <ele>461</ele>
   </trkpt>
   <trkpt lat="27.6988780" lon="75.4703200">
    <ele>460</ele>
   </trkpt>
   <trkpt lat="27.6986680" lon="75.4700930">
    <ele>460</ele>
   </trkpt>
   <trkpt lat="27.6980840" lon="75.4696330">
    <ele>460</ele>
   </trkpt>
   <trkpt lat="27.6977690" lon="75.4694300">
    <ele>460</ele>
   </trkpt>
   <trkpt lat="27.6972960" lon="75.4692600">
    <ele>456</ele>
   </trkpt>
   <trkpt lat="27.6966140" lon="75.4689990">
    <ele>459</ele>
   </trkpt>
   <trkpt lat="27.6958240" lon="75.4684750">
    <ele>470</ele>
   </trkpt>
   <trkpt lat="27.6949090" lon="75.4678230">
    <ele>473</ele>
   </trkpt>
   <trkpt lat="27.6938760" lon="75.4671650">
    <ele>474</ele>
   </trkpt>
   <trkpt lat="27.6928230" lon="75.4665600">
    <ele>470</ele>
   </trkpt>
   <trkpt lat="27.6924620" lon="75.4663740">
    <ele>469</ele>
   </trkpt>
   <trkpt lat="27.6918960" lon="75.4658470">
    <ele>472</ele>
   </trkpt>
   <trkpt lat="27.6917000" lon="75.4655600">
    <ele>470</ele>
   </trkpt>
   <trkpt lat="27.6914180" lon="75.4650570">
    <ele>466</ele>
   </trkpt>
   <trkpt lat="27.6909170" lon="75.4635070">
    <ele>468</ele>
   </trkpt>
   <trkpt lat="27.6906760" lon="75.4628360">
    <ele>466</ele>
   </trkpt>
   <trkpt lat="27.6901820" lon="75.4618990">
    <ele>473</ele>
   </trkpt>
   <trkpt lat="27.6899790" lon="75.4616360">
    <ele>473</ele>
   </trkpt>
   <trkpt lat="27.6896970" lon="75.4613229">
    <ele>471</ele>
   </trkpt>
   <trkpt lat="27.6882780" lon="75.4604250">
    <ele>477</ele>
   </trkpt>
   <trkpt lat="27.6880590" lon="75.4602950">
    <ele>475</ele>
   </trkpt>
   <trkpt lat="27.6877170" lon="75.4599140">
    <ele>476</ele>
   </trkpt>
   <trkpt lat="27.6857500" lon="75.4582439">
    <ele>474</ele>
   </trkpt>
   <trkpt lat="27.6841810" lon="75.4569620">
    <ele>476</ele>
   </trkpt>
   <trkpt lat="27.6838070" lon="75.4566020">
    <ele>476</ele>
   </trkpt>
   <trkpt lat="27.6838070" lon="75.4566020">
    <ele>476</ele>
   </trkpt>
   <trkpt lat="27.6838070" lon="75.4566020">
    <ele>476</ele>
   </trkpt>
   <trkpt lat="27.6838070" lon="75.4566020">
    <ele>476</ele>
   </trkpt>
   <trkpt lat="27.6835270" lon="75.4562080">
    <ele>476</ele>
   </trkpt>
   <trkpt lat="27.6834120" lon="75.4559600">
    <ele>479</ele>
   </trkpt>
   <trkpt lat="27.6833820" lon="75.4557310">
    <ele>481</ele>
   </trkpt>
   <trkpt lat="27.6834510" lon="75.4546010">
    <ele>487</ele>
   </trkpt>
   <trkpt lat="27.6834030" lon="75.4543170">
    <ele>488</ele>
   </trkpt>
   <trkpt lat="27.6832990" lon="75.4541210">
    <ele>488</ele>
   </trkpt>
   <trkpt lat="27.6822590" lon="75.4530800">
    <ele>480</ele>
   </trkpt>
   <trkpt lat="27.6817890" lon="75.4525110">
    <ele>482</ele>
   </trkpt>
   <trkpt lat="27.6809780" lon="75.4513510">
    <ele>481</ele>
   </trkpt>
   <trkpt lat="27.6809140" lon="75.4511969">
    <ele>479</ele>
   </trkpt>
   <trkpt lat="27.6809160" lon="75.4510380">
    <ele>480</ele>
   </trkpt>
   <trkpt lat="27.6812790" lon="75.4500830">
    <ele>483</ele>
   </trkpt>
   <trkpt lat="27.6813390" lon="75.4498220">
    <ele>485</ele>
   </trkpt>
   <trkpt lat="27.6813130" lon="75.4496360">
    <ele>491</ele>
   </trkpt>
   <trkpt lat="27.6810450" lon="75.4492450">
    <ele>489</ele>
   </trkpt>
   <trkpt lat="27.6804260" lon="75.4485350">
    <ele>489</ele>
   </trkpt>
   <trkpt lat="27.6801370" lon="75.4480940">
    <ele>485</ele>
   </trkpt>
   <trkpt lat="27.6797170" lon="75.4472640">
    <ele>480</ele>
   </trkpt>
   <trkpt lat="27.6794000" lon="75.4467350">
    <ele>478</ele>
   </trkpt>
   <trkpt lat="27.6790490" lon="75.4463150">
    <ele>481</ele>
   </trkpt>
   <trkpt lat="27.6789170" lon="75.4461190">
    <ele>483</ele>
   </trkpt>
   <trkpt lat="27.6786510" lon="75.4454010">
    <ele>482</ele>
   </trkpt>
   <trkpt lat="27.6785220" lon="75.4450880">
    <ele>481</ele>
   </trkpt>
   <trkpt lat="27.6780340" lon="75.4441960">
    <ele>484</ele>
   </trkpt>
   <trkpt lat="27.6763660" lon="75.4412290">
    <ele>490</ele>
   </trkpt>
   <trkpt lat="27.6761350" lon="75.4408720">
    <ele>493</ele>
   </trkpt>
   <trkpt lat="27.6759320" lon="75.4406939">
    <ele>494</ele>
   </trkpt>
   <trkpt lat="27.6750880" lon="75.4401150">
    <ele>496</ele>
   </trkpt>
   <trkpt lat="27.6748200" lon="75.4399580">
    <ele>497</ele>
   </trkpt>
   <trkpt lat="27.6731890" lon="75.4393450">
    <ele>496</ele>
   </trkpt>
   <trkpt lat="27.6718670" lon="75.4385960">
    <ele>495</ele>
   </trkpt>
   <trkpt lat="27.6712180" lon="75.4382150">
    <ele>498</ele>
   </trkpt>
   <trkpt lat="27.6710910" lon="75.4381120">
    <ele>497</ele>
   </trkpt>
   <trkpt lat="27.6705800" lon="75.4374440">
    <ele>495</ele>
   </trkpt>
   <trkpt lat="27.6696960" lon="75.4362210">
    <ele>499</ele>
   </trkpt>
   <trkpt lat="27.6695840" lon="75.4361100">
    <ele>500</ele>
   </trkpt>
   <trkpt lat="27.6683310" lon="75.4353530">
    <ele>503</ele>
   </trkpt>
   <trkpt lat="27.6666090" lon="75.4343150">
    <ele>504</ele>
   </trkpt>
   <trkpt lat="27.6653270" lon="75.4335110">
    <ele>505</ele>
   </trkpt>
   <trkpt lat="27.6651600" lon="75.4333730">
    <ele>503</ele>
   </trkpt>
   <trkpt lat="27.6646960" lon="75.4327050">
    <ele>501</ele>
   </trkpt>
   <trkpt lat="27.6637780" lon="75.4314080">
    <ele>509</ele>
   </trkpt>
   <trkpt lat="27.6634960" lon="75.4309750">
    <ele>510</ele>
   </trkpt>
   <trkpt lat="27.6628800" lon="75.4300279">
    <ele>507</ele>
   </trkpt>
   <trkpt lat="27.6616330" lon="75.4276340">
    <ele>505</ele>
   </trkpt>
   <trkpt lat="27.6614760" lon="75.4274170">
    <ele>505</ele>
   </trkpt>
   <trkpt lat="27.6613420" lon="75.4272820">
    <ele>505</ele>
   </trkpt>
   <trkpt lat="27.6611960" lon="75.4271620">
    <ele>505</ele>
   </trkpt>
   <trkpt lat="27.6603080" lon="75.4266449">
    <ele>509</ele>
   </trkpt>
   <trkpt lat="27.6598530" lon="75.4263810">
    <ele>509</ele>
   </trkpt>
   <trkpt lat="27.6583350" lon="75.4256720">
    <ele>510</ele>
   </trkpt>
   <trkpt lat="27.6571320" lon="75.4251040">
    <ele>512</ele>
   </trkpt>
   <trkpt lat="27.6569640" lon="75.4250110">
    <ele>512</ele>
   </trkpt>
   <trkpt lat="27.6568610" lon="75.4249530">
    <ele>511</ele>
   </trkpt>
   <trkpt lat="27.6568110" lon="75.4249150">
    <ele>511</ele>
   </trkpt>
   <trkpt lat="27.6567280" lon="75.4248500">
    <ele>511</ele>
   </trkpt>
   <trkpt lat="27.6565880" lon="75.4247060">
    <ele>512</ele>
   </trkpt>
   <trkpt lat="27.6565250" lon="75.4246270">
    <ele>512</ele>
   </trkpt>
   <trkpt lat="27.6563690" lon="75.4244310">
    <ele>512</ele>
   </trkpt>
   <trkpt lat="27.6556940" lon="75.4235820">
    <ele>517</ele>
   </trkpt>
   <trkpt lat="27.6550330" lon="75.4227440">
    <ele>524</ele>
   </trkpt>
   <trkpt lat="27.6545320" lon="75.4221440">
    <ele>524</ele>
   </trkpt>
   <trkpt lat="27.6539200" lon="75.4214100">
    <ele>519</ele>
   </trkpt>
   <trkpt lat="27.6533130" lon="75.4206510">
    <ele>519</ele>
   </trkpt>
   <trkpt lat="27.6529440" lon="75.4201830">
    <ele>521</ele>
   </trkpt>
   <trkpt lat="27.6528460" lon="75.4200730">
    <ele>520</ele>
   </trkpt>
   <trkpt lat="27.6527690" lon="75.4200070">
    <ele>521</ele>
   </trkpt>
   <trkpt lat="27.6526820" lon="75.4199570">
    <ele>521</ele>
   </trkpt>
   <trkpt lat="27.6526020" lon="75.4199299">
    <ele>520</ele>
   </trkpt>
   <trkpt lat="27.6523380" lon="75.4198870">
    <ele>521</ele>
   </trkpt>
   <trkpt lat="27.6518240" lon="75.4198030">
    <ele>524</ele>
   </trkpt>
   <trkpt lat="27.6514490" lon="75.4196850">
    <ele>521</ele>
   </trkpt>
   <trkpt lat="27.6514490" lon="75.4196850">
    <ele>521</ele>
   </trkpt>
   <trkpt lat="27.6513220" lon="75.4196130">
    <ele>520</ele>
   </trkpt>
   <trkpt lat="27.6510700" lon="75.4194710">
    <ele>518</ele>
   </trkpt>
   <trkpt lat="27.6510140" lon="75.4194160">
    <ele>519</ele>
   </trkpt>
   <trkpt lat="27.6509850" lon="75.4193480">
    <ele>519</ele>
   </trkpt>
   <trkpt lat="27.6509770" lon="75.4193140">
    <ele>519</ele>
   </trkpt>
   <trkpt lat="27.6509770" lon="75.4193140">
    <ele>519</ele>
   </trkpt>
   <trkpt lat="27.6509074" lon="75.4192789">
    <ele>520</ele>
   </trkpt>
   <trkpt lat="27.6509074" lon="75.4192789">
    <ele>520</ele>
   </trkpt>
   <trkpt lat="27.6507784" lon="75.4192363">
    <ele>521</ele>
   </trkpt>
   <trkpt lat="27.6507784" lon="75.4192363">
    <ele>521</ele>
   </trkpt>
   <trkpt lat="27.6506500" lon="75.4192282">
    <ele>523</ele>
   </trkpt>
   <trkpt lat="27.6506500" lon="75.4192282">
    <ele>523</ele>
   </trkpt>
   <trkpt lat="27.6505310" lon="75.4192258">
    <ele>525</ele>
   </trkpt>
   <trkpt lat="27.6505310" lon="75.4192258">
    <ele>525</ele>
   </trkpt>
   <trkpt lat="27.6504123" lon="75.4192279">
    <ele>526</ele>
   </trkpt>
   <trkpt lat="27.6504123" lon="75.4192279">
    <ele>526</ele>
   </trkpt>
   <trkpt lat="27.6502988" lon="75.4191981">
    <ele>529</ele>
   </trkpt>
   <trkpt lat="27.6502988" lon="75.4191981">
    <ele>529</ele>
   </trkpt>
   <trkpt lat="27.6503307" lon="75.4191290">
    <ele>528</ele>
   </trkpt>
   <trkpt lat="27.6503307" lon="75.4191290">
    <ele>528</ele>
   </trkpt>
   <trkpt lat="27.6503673" lon="75.4190936">
    <ele>528</ele>
   </trkpt>
   <trkpt lat="27.6503673" lon="75.4190936">
    <ele>528</ele>
   </trkpt>
   <trkpt lat="27.6503088" lon="75.4190477">
    <ele>528</ele>
   </trkpt>
   <trkpt lat="27.6503088" lon="75.4190477">
    <ele>528</ele>
   </trkpt>
   <trkpt lat="27.6502221" lon="75.4190444">
    <ele>531</ele>
   </trkpt>
   <trkpt lat="27.6502221" lon="75.4190444">
    <ele>531</ele>
   </trkpt>
   <trkpt lat="27.6501229" lon="75.4189369">
    <ele>533</ele>
   </trkpt>
   <trkpt lat="27.6501229" lon="75.4189369">
    <ele>533</ele>
   </trkpt>
   <trkpt lat="27.6499609" lon="75.4189399">
    <ele>536</ele>
   </trkpt>
   <trkpt lat="27.6499609" lon="75.4189399">
    <ele>536</ele>
   </trkpt>
   <trkpt lat="27.6498083" lon="75.4188978">
    <ele>538</ele>
   </trkpt>
   <trkpt lat="27.6498083" lon="75.4188978">
    <ele>538</ele>
   </trkpt>
   <trkpt lat="27.6497440" lon="75.4187781">
    <ele>539</ele>
   </trkpt>
   <trkpt lat="27.6497440" lon="75.4187781">
    <ele>539</ele>
   </trkpt>
   <trkpt lat="27.6496070" lon="75.4186538">
    <ele>540</ele>
   </trkpt>
   <trkpt lat="27.6496070" lon="75.4186538">
    <ele>540</ele>
   </trkpt>
   <trkpt lat="27.6493988" lon="75.4185184">
    <ele>542</ele>
   </trkpt>
   <trkpt lat="27.6493988" lon="75.4185184">
    <ele>542</ele>
   </trkpt>
   <trkpt lat="27.6493744" lon="75.4183738">
    <ele>543</ele>
   </trkpt>
   <trkpt lat="27.6493744" lon="75.4183738">
    <ele>543</ele>
   </trkpt>
   <trkpt lat="27.6494450" lon="75.4182563">
    <ele>542</ele>
   </trkpt>
   <trkpt lat="27.6494450" lon="75.4182563">
    <ele>542</ele>
   </trkpt>
   <trkpt lat="27.6494508" lon="75.4181354">
    <ele>539</ele>
   </trkpt>
   <trkpt lat="27.6494508" lon="75.4181354">
    <ele>539</ele>
   </trkpt>
   <trkpt lat="27.6491867" lon="75.4179896">
    <ele>540</ele>
   </trkpt>
   <trkpt lat="27.6491867" lon="75.4179896">
    <ele>540</ele>
   </trkpt>
   <trkpt lat="27.6488815" lon="75.4176946">
    <ele>535</ele>
   </trkpt>
   <trkpt lat="27.6488815" lon="75.4176946">
    <ele>535</ele>
   </trkpt>
   <trkpt lat="27.6486437" lon="75.4173590">
    <ele>533</ele>
   </trkpt>
   <trkpt lat="27.6486437" lon="75.4173590">
    <ele>533</ele>
   </trkpt>
   <trkpt lat="27.6485228" lon="75.4169625">
    <ele>533</ele>
   </trkpt>
   <trkpt lat="27.6485228" lon="75.4169625">
    <ele>533</ele>
   </trkpt>
   <trkpt lat="27.6487717" lon="75.4165921">
    <ele>528</ele>
   </trkpt>
   <trkpt lat="27.6487717" lon="75.4165921">
    <ele>528</ele>
   </trkpt>
   <trkpt lat="27.6488885" lon="75.4164306">
    <ele>525</ele>
   </trkpt>
   <trkpt lat="27.6489770" lon="75.4163430">
    <ele>525</ele>
   </trkpt>
   <trkpt lat="27.6488190" lon="75.4161400">
    <ele>522</ele>
   </trkpt>
   <trkpt lat="27.6487210" lon="75.4160140">
    <ele>522</ele>
   </trkpt>
   <trkpt lat="27.6486280" lon="75.4159060">
    <ele>521</ele>
   </trkpt>
   <trkpt lat="27.6485270" lon="75.4158290">
    <ele>523</ele>
   </trkpt>
   <trkpt lat="27.6478050" lon="75.4154310">
    <ele>523</ele>
   </trkpt>
   <trkpt lat="27.6474760" lon="75.4152840">
    <ele>526</ele>
   </trkpt>
   <trkpt lat="27.6473960" lon="75.4152270">
    <ele>526</ele>
   </trkpt>
   <trkpt lat="27.6472080" lon="75.4150250">
    <ele>527</ele>
   </trkpt>
   <trkpt lat="27.6471670" lon="75.4149489">
    <ele>528</ele>
   </trkpt>
   <trkpt lat="27.6471430" lon="75.4148570">
    <ele>528</ele>
   </trkpt>
   <trkpt lat="27.6471300" lon="75.4147360">
    <ele>528</ele>
   </trkpt>
   <trkpt lat="27.6470880" lon="75.4142959">
    <ele>528</ele>
   </trkpt>
   <trkpt lat="27.6470620" lon="75.4141590">
    <ele>528</ele>
   </trkpt>
   <trkpt lat="27.6470280" lon="75.4140130">
    <ele>530</ele>
   </trkpt>
   <trkpt lat="27.6468850" lon="75.4134790">
    <ele>532</ele>
   </trkpt>
   <trkpt lat="27.6467750" lon="75.4130640">
    <ele>531</ele>
   </trkpt>
   <trkpt lat="27.6467540" lon="75.4129310">
    <ele>531</ele>
   </trkpt>
   <trkpt lat="27.6467240" lon="75.4124810">
    <ele>532</ele>
   </trkpt>
   <trkpt lat="27.6466960" lon="75.4123770">
    <ele>532</ele>
   </trkpt>
   <trkpt lat="27.6466580" lon="75.4122900">
    <ele>532</ele>
   </trkpt>
   <trkpt lat="27.6466070" lon="75.4122110">
    <ele>532</ele>
   </trkpt>
   <trkpt lat="27.6464320" lon="75.4120020">
    <ele>531</ele>
   </trkpt>
   <trkpt lat="27.6463250" lon="75.4118950">
    <ele>531</ele>
   </trkpt>
   <trkpt lat="27.6462230" lon="75.4117940">
    <ele>530</ele>
   </trkpt>
   <trkpt lat="27.6456520" lon="75.4113140">
    <ele>536</ele>
   </trkpt>
   <trkpt lat="27.6455660" lon="75.4112540">
    <ele>536</ele>
   </trkpt>
   <trkpt lat="27.6454720" lon="75.4111999">
    <ele>536</ele>
   </trkpt>
   <trkpt lat="27.6441900" lon="75.4107350">
    <ele>537</ele>
   </trkpt>
   <trkpt lat="27.6440710" lon="75.4106860">
    <ele>537</ele>
   </trkpt>
   <trkpt lat="27.6439530" lon="75.4106140">
    <ele>539</ele>
   </trkpt>
   <trkpt lat="27.6438370" lon="75.4105180">
    <ele>540</ele>
   </trkpt>
   <trkpt lat="27.6435660" lon="75.4102210">
    <ele>543</ele>
   </trkpt>
   <trkpt lat="27.6431950" lon="75.4097610">
    <ele>543</ele>
   </trkpt>
   <trkpt lat="27.6430790" lon="75.4096520">
    <ele>542</ele>
   </trkpt>
   <trkpt lat="27.6429920" lon="75.4095940">
    <ele>543</ele>
   </trkpt>
   <trkpt lat="27.6428980" lon="75.4095460">
    <ele>543</ele>
   </trkpt>
   <trkpt lat="27.6422960" lon="75.4093130">
    <ele>546</ele>
   </trkpt>
   <trkpt lat="27.6420460" lon="75.4091630">
    <ele>547</ele>
   </trkpt>
   <trkpt lat="27.6417740" lon="75.4089480">
    <ele>546</ele>
   </trkpt>
   <trkpt lat="27.6416290" lon="75.4087720">
    <ele>545</ele>
   </trkpt>
   <trkpt lat="27.6415340" lon="75.4086480">
    <ele>544</ele>
   </trkpt>
   <trkpt lat="27.6414270" lon="75.4085690">
    <ele>545</ele>
   </trkpt>
   <trkpt lat="27.6412710" lon="75.4085060">
    <ele>543</ele>
   </trkpt>
   <trkpt lat="27.6411320" lon="75.4085290">
    <ele>542</ele>
   </trkpt>
   <trkpt lat="27.6409700" lon="75.4086360">
    <ele>540</ele>
   </trkpt>
   <trkpt lat="27.6408290" lon="75.4087040">
    <ele>540</ele>
   </trkpt>
   <trkpt lat="27.6406920" lon="75.4087270">
    <ele>540</ele>
   </trkpt>
   <trkpt lat="27.6405310" lon="75.4086810">
    <ele>540</ele>
   </trkpt>
   <trkpt lat="27.6402320" lon="75.4085070">
    <ele>539</ele>
   </trkpt>
   <trkpt lat="27.6399060" lon="75.4084060">
    <ele>539</ele>
   </trkpt>
   <trkpt lat="27.6394900" lon="75.4083680">
    <ele>545</ele>
   </trkpt>
   <trkpt lat="27.6392610" lon="75.4082510">
    <ele>550</ele>
   </trkpt>
   <trkpt lat="27.6388670" lon="75.4081320">
    <ele>552</ele>
   </trkpt>
   <trkpt lat="27.6386320" lon="75.4080490">
    <ele>555</ele>
   </trkpt>
   <trkpt lat="27.6385610" lon="75.4080460">
    <ele>555</ele>
   </trkpt>
   <trkpt lat="27.6379570" lon="75.4080180">
    <ele>556</ele>
   </trkpt>
   <trkpt lat="27.6372640" lon="75.4080360">
    <ele>552</ele>
   </trkpt>
   <trkpt lat="27.6370230" lon="75.4080050">
    <ele>553</ele>
   </trkpt>
   <trkpt lat="27.6366130" lon="75.4078590">
    <ele>553</ele>
   </trkpt>
   <trkpt lat="27.6360110" lon="75.4076440">
    <ele>553</ele>
   </trkpt>
   <trkpt lat="27.6359450" lon="75.4076210">
    <ele>553</ele>
   </trkpt>
   <trkpt lat="27.6357700" lon="75.4076020">
    <ele>554</ele>
   </trkpt>
   <trkpt lat="27.6355550" lon="75.4076610">
    <ele>554</ele>
   </trkpt>
   <trkpt lat="27.6354480" lon="75.4076610">
    <ele>555</ele>
   </trkpt>
   <trkpt lat="27.6352890" lon="75.4076040">
    <ele>555</ele>
   </trkpt>
   <trkpt lat="27.6347540" lon="75.4072520">
    <ele>557</ele>
   </trkpt>
   <trkpt lat="27.6345150" lon="75.4071050">
    <ele>559</ele>
   </trkpt>
   <trkpt lat="27.6343340" lon="75.4069950">
    <ele>559</ele>
   </trkpt>
   <trkpt lat="27.6339650" lon="75.4066660">
    <ele>558</ele>
   </trkpt>
   <trkpt lat="27.6336310" lon="75.4062189">
    <ele>554</ele>
   </trkpt>
   <trkpt lat="27.6335590" lon="75.4061360">
    <ele>554</ele>
   </trkpt>
   <trkpt lat="27.6334150" lon="75.4060040">
    <ele>553</ele>
   </trkpt>
   <trkpt lat="27.6330010" lon="75.4056240">
    <ele>558</ele>
   </trkpt>
   <trkpt lat="27.6329130" lon="75.4055390">
    <ele>558</ele>
   </trkpt>
   <trkpt lat="27.6328350" lon="75.4054920">
    <ele>560</ele>
   </trkpt>
   <trkpt lat="27.6327610" lon="75.4054720">
    <ele>560</ele>
   </trkpt>
   <trkpt lat="27.6325150" lon="75.4053980">
    <ele>562</ele>
   </trkpt>
   <trkpt lat="27.6323870" lon="75.4053820">
    <ele>563</ele>
   </trkpt>
   <trkpt lat="27.6323140" lon="75.4053950">
    <ele>563</ele>
   </trkpt>
   <trkpt lat="27.6322260" lon="75.4054190">
    <ele>563</ele>
   </trkpt>
   <trkpt lat="27.6321490" lon="75.4054309">
    <ele>563</ele>
   </trkpt>
   <trkpt lat="27.6320590" lon="75.4054260">
    <ele>564</ele>
   </trkpt>
   <trkpt lat="27.6318380" lon="75.4053670">
    <ele>564</ele>
   </trkpt>
   <trkpt lat="27.6315900" lon="75.4053250">
    <ele>564</ele>
   </trkpt>
   <trkpt lat="27.6313090" lon="75.4052230">
    <ele>563</ele>
   </trkpt>
   <trkpt lat="27.6310920" lon="75.4051710">
    <ele>562</ele>
   </trkpt>
   <trkpt lat="27.6309390" lon="75.4050870">
    <ele>562</ele>
   </trkpt>
   <trkpt lat="27.6308840" lon="75.4050530">
    <ele>562</ele>
   </trkpt>
   <trkpt lat="27.6308190" lon="75.4050680">
    <ele>562</ele>
   </trkpt>
   <trkpt lat="27.6303180" lon="75.4054290">
    <ele>564</ele>
   </trkpt>
   <trkpt lat="27.6302230" lon="75.4054790">
    <ele>564</ele>
   </trkpt>
   <trkpt lat="27.6301530" lon="75.4054710">
    <ele>565</ele>
   </trkpt>
   <trkpt lat="27.6300880" lon="75.4054309">
    <ele>565</ele>
   </trkpt>
   <trkpt lat="27.6298810" lon="75.4052180">
    <ele>565</ele>
   </trkpt>
   <trkpt lat="27.6293610" lon="75.4048490">
    <ele>567</ele>
   </trkpt>
   <trkpt lat="27.6289190" lon="75.4046510">
    <ele>566</ele>
   </trkpt>
   <trkpt lat="27.6288270" lon="75.4045730">
    <ele>566</ele>
   </trkpt>
   <trkpt lat="27.6287920" lon="75.4045560">
    <ele>566</ele>
   </trkpt>
   <trkpt lat="27.6286960" lon="75.4045110">
    <ele>566</ele>
   </trkpt>
   <trkpt lat="27.6286240" lon="75.4045070">
    <ele>567</ele>
   </trkpt>
   <trkpt lat="27.6284330" lon="75.4045340">
    <ele>567</ele>
   </trkpt>
   <trkpt lat="27.6283740" lon="75.4045000">
    <ele>567</ele>
   </trkpt>
   <trkpt lat="27.6283450" lon="75.4044340">
    <ele>566</ele>
   </trkpt>
   <trkpt lat="27.6282980" lon="75.4043260">
    <ele>567</ele>
   </trkpt>
   <trkpt lat="27.6282630" lon="75.4042670">
    <ele>567</ele>
   </trkpt>
   <trkpt lat="27.6281540" lon="75.4040830">
    <ele>568</ele>
   </trkpt>
   <trkpt lat="27.6280650" lon="75.4039890">
    <ele>568</ele>
   </trkpt>
   <trkpt lat="27.6279900" lon="75.4039220">
    <ele>569</ele>
   </trkpt>
   <trkpt lat="27.6279460" lon="75.4038630">
    <ele>569</ele>
   </trkpt>
   <trkpt lat="27.6279190" lon="75.4038030">
    <ele>568</ele>
   </trkpt>
   <trkpt lat="27.6278200" lon="75.4035250">
    <ele>567</ele>
   </trkpt>
   <trkpt lat="27.6277960" lon="75.4034730">
    <ele>567</ele>
   </trkpt>
   <trkpt lat="27.6277730" lon="75.4034300">
    <ele>565</ele>
   </trkpt>
   <trkpt lat="27.6277450" lon="75.4033890">
    <ele>565</ele>
   </trkpt>
   <trkpt lat="27.6274810" lon="75.4031660">
    <ele>566</ele>
   </trkpt>
   <trkpt lat="27.6274550" lon="75.4030870">
    <ele>564</ele>
   </trkpt>
   <trkpt lat="27.6274460" lon="75.4030240">
    <ele>564</ele>
   </trkpt>
   <trkpt lat="27.6274610" lon="75.4029460">
    <ele>563</ele>
   </trkpt>
   <trkpt lat="27.6276490" lon="75.4025520">
    <ele>562</ele>
   </trkpt>
   <trkpt lat="27.6276900" lon="75.4024580">
    <ele>562</ele>
   </trkpt>
   <trkpt lat="27.6277280" lon="75.4023980">
    <ele>561</ele>
   </trkpt>
   <trkpt lat="27.6277880" lon="75.4023770">
    <ele>561</ele>
   </trkpt>
   <trkpt lat="27.6279340" lon="75.4024100">
    <ele>561</ele>
   </trkpt>
   <trkpt lat="27.6280010" lon="75.4024230">
    <ele>561</ele>
   </trkpt>
   <trkpt lat="27.6280850" lon="75.4023780">
    <ele>561</ele>
   </trkpt>
   <trkpt lat="27.6281550" lon="75.4023050">
    <ele>561</ele>
   </trkpt>
   <trkpt lat="27.6282480" lon="75.4022169">
    <ele>561</ele>
   </trkpt>
   <trkpt lat="27.6282830" lon="75.4021690">
    <ele>561</ele>
   </trkpt>
   <trkpt lat="27.6283230" lon="75.4021030">
    <ele>561</ele>
   </trkpt>
   <trkpt lat="27.6283330" lon="75.4020380">
    <ele>562</ele>
   </trkpt>
   <trkpt lat="27.6282670" lon="75.4013910">
    <ele>567</ele>
   </trkpt>
   <trkpt lat="27.6282640" lon="75.4012980">
    <ele>567</ele>
   </trkpt>
   <trkpt lat="27.6282890" lon="75.4012190">
    <ele>568</ele>
   </trkpt>
   <trkpt lat="27.6283260" lon="75.4011529">
    <ele>568</ele>
   </trkpt>
   <trkpt lat="27.6283770" lon="75.4010980">
    <ele>568</ele>
   </trkpt>
   <trkpt lat="27.6284350" lon="75.4010700">
    <ele>568</ele>
   </trkpt>
   <trkpt lat="27.6286370" lon="75.4010290">
    <ele>571</ele>
   </trkpt>
   <trkpt lat="27.6288940" lon="75.4009930">
    <ele>571</ele>
   </trkpt>
   <trkpt lat="27.6290380" lon="75.4009430">
    <ele>571</ele>
   </trkpt>
   <trkpt lat="27.6292100" lon="75.4008020">
    <ele>574</ele>
   </trkpt>
   <trkpt lat="27.6294950" lon="75.4006220">
    <ele>575</ele>
   </trkpt>
   <trkpt lat="27.6295460" lon="75.4005720">
    <ele>575</ele>
   </trkpt>
   <trkpt lat="27.6295460" lon="75.4005720">
    <ele>575</ele>
   </trkpt>
   <trkpt lat="27.6295460" lon="75.4005720">
    <ele>575</ele>
   </trkpt>
   <trkpt lat="27.6295460" lon="75.4005720">
    <ele>575</ele>
   </trkpt>
   <trkpt lat="27.6295880" lon="75.4005100">
    <ele>574</ele>
   </trkpt>
   <trkpt lat="27.6296870" lon="75.4002840">
    <ele>573</ele>
   </trkpt>
   <trkpt lat="27.6297250" lon="75.4002120">
    <ele>573</ele>
   </trkpt>
   <trkpt lat="27.6298940" lon="75.3998950">
    <ele>571</ele>
   </trkpt>
   <trkpt lat="27.6300350" lon="75.3995630">
    <ele>568</ele>
   </trkpt>
   <trkpt lat="27.6301330" lon="75.3992770">
    <ele>567</ele>
   </trkpt>
   <trkpt lat="27.6301870" lon="75.3981560">
    <ele>567</ele>
   </trkpt>
   <trkpt lat="27.6302110" lon="75.3979640">
    <ele>567</ele>
   </trkpt>
   <trkpt lat="27.6302510" lon="75.3978750">
    <ele>567</ele>
   </trkpt>
   <trkpt lat="27.6303830" lon="75.3977910">
    <ele>566</ele>
   </trkpt>
   <trkpt lat="27.6305750" lon="75.3976200">
    <ele>566</ele>
   </trkpt>
   <trkpt lat="27.6308300" lon="75.3969870">
    <ele>570</ele>
   </trkpt>
   <trkpt lat="27.6309080" lon="75.3969390">
    <ele>570</ele>
   </trkpt>
   <trkpt lat="27.6310210" lon="75.3969480">
    <ele>570</ele>
   </trkpt>
   <trkpt lat="27.6317140" lon="75.3972129">
    <ele>571</ele>
   </trkpt>
   <trkpt lat="27.6320460" lon="75.3972910">
    <ele>570</ele>
   </trkpt>
   <trkpt lat="27.6320670" lon="75.3972960">
    <ele>570</ele>
   </trkpt>
   <trkpt lat="27.6322550" lon="75.3973000">
    <ele>570</ele>
   </trkpt>
   <trkpt lat="27.6322760" lon="75.3973010">
    <ele>570</ele>
   </trkpt>
   <trkpt lat="27.6324280" lon="75.3972780">
    <ele>571</ele>
   </trkpt>
   <trkpt lat="27.6328620" lon="75.3970530">
    <ele>573</ele>
   </trkpt>
   <trkpt lat="27.6331040" lon="75.3969670">
    <ele>573</ele>
   </trkpt>
   <trkpt lat="27.6333200" lon="75.3969150">
    <ele>574</ele>
   </trkpt>
   <trkpt lat="27.6335540" lon="75.3968630">
    <ele>577</ele>
   </trkpt>
   <trkpt lat="27.6347670" lon="75.3965750">
    <ele>586</ele>
   </trkpt>
   <trkpt lat="27.6352690" lon="75.3965140">
    <ele>586</ele>
   </trkpt>
   <trkpt lat="27.6357630" lon="75.3964730">
    <ele>589</ele>
   </trkpt>
   <trkpt lat="27.6358820" lon="75.3964570">
    <ele>590</ele>
   </trkpt>
   <trkpt lat="27.6359860" lon="75.3964520">
    <ele>592</ele>
   </trkpt>
   <trkpt lat="27.6362650" lon="75.3965000">
    <ele>597</ele>
   </trkpt>
   <trkpt lat="27.6365440" lon="75.3965510">
    <ele>599</ele>
   </trkpt>
   <trkpt lat="27.6366020" lon="75.3965480">
    <ele>602</ele>
   </trkpt>
   <trkpt lat="27.6366710" lon="75.3965350">
    <ele>602</ele>
   </trkpt>
   <trkpt lat="27.6367920" lon="75.3964640">
    <ele>604</ele>
   </trkpt>
   <trkpt lat="27.6369110" lon="75.3964370">
    <ele>606</ele>
   </trkpt>
   <trkpt lat="27.6372270" lon="75.3964820">
    <ele>610</ele>
   </trkpt>
   <trkpt lat="27.6374290" lon="75.3964770">
    <ele>611</ele>
   </trkpt>
   <trkpt lat="27.6374700" lon="75.3964710">
    <ele>613</ele>
   </trkpt>
   <trkpt lat="27.6375130" lon="75.3964510">
    <ele>613</ele>
   </trkpt>
   <trkpt lat="27.6375390" lon="75.3964200">
    <ele>611</ele>
   </trkpt>
   <trkpt lat="27.6375620" lon="75.3963820">
    <ele>611</ele>
   </trkpt>
   <trkpt lat="27.6375950" lon="75.3962990">
    <ele>611</ele>
   </trkpt>
   <trkpt lat="27.6376690" lon="75.3961800">
    <ele>615</ele>
   </trkpt>
   <trkpt lat="27.6376960" lon="75.3961650">
    <ele>615</ele>
   </trkpt>
   <trkpt lat="27.6377340" lon="75.3961630">
    <ele>615</ele>
   </trkpt>
   <trkpt lat="27.6377550" lon="75.3961780">
    <ele>615</ele>
   </trkpt>
   <trkpt lat="27.6377720" lon="75.3962100">
    <ele>618</ele>
   </trkpt>
   <trkpt lat="27.6377870" lon="75.3964090">
    <ele>617</ele>
   </trkpt>
   <trkpt lat="27.6378040" lon="75.3964280">
    <ele>618</ele>
   </trkpt>
   <trkpt lat="27.6378290" lon="75.3964380">
    <ele>618</ele>
   </trkpt>
   <trkpt lat="27.6378650" lon="75.3964310">
    <ele>618</ele>
   </trkpt>
   <trkpt lat="27.6378960" lon="75.3964030">
    <ele>617</ele>
   </trkpt>
   <trkpt lat="27.6379210" lon="75.3962800">
    <ele>619</ele>
   </trkpt>
   <trkpt lat="27.6379290" lon="75.3962020">
    <ele>620</ele>
   </trkpt>
   <trkpt lat="27.6379540" lon="75.3961570">
    <ele>620</ele>
   </trkpt>
   <trkpt lat="27.6379820" lon="75.3961460">
    <ele>620</ele>
   </trkpt>
   <trkpt lat="27.6380160" lon="75.3961580">
    <ele>620</ele>
   </trkpt>
   <trkpt lat="27.6380520" lon="75.3962140">
    <ele>620</ele>
   </trkpt>
   <trkpt lat="27.6380550" lon="75.3963040">
    <ele>619</ele>
   </trkpt>
   <trkpt lat="27.6380640" lon="75.3964760">
    <ele>620</ele>
   </trkpt>
   <trkpt lat="27.6380770" lon="75.3965140">
    <ele>622</ele>
   </trkpt>
   <trkpt lat="27.6381020" lon="75.3965420">
    <ele>622</ele>
   </trkpt>
   <trkpt lat="27.6381600" lon="75.3965500">
    <ele>622</ele>
   </trkpt>
   <trkpt lat="27.6381890" lon="75.3965210">
    <ele>622</ele>
   </trkpt>
   <trkpt lat="27.6381990" lon="75.3964960">
    <ele>622</ele>
   </trkpt>
   <trkpt lat="27.6382020" lon="75.3964190">
    <ele>622</ele>
   </trkpt>
   <trkpt lat="27.6382090" lon="75.3963620">
    <ele>622</ele>
   </trkpt>
   <trkpt lat="27.6382150" lon="75.3963250">
    <ele>622</ele>
   </trkpt>
   <trkpt lat="27.6382420" lon="75.3962990">
    <ele>625</ele>
   </trkpt>
   <trkpt lat="27.6382720" lon="75.3962860">
    <ele>625</ele>
   </trkpt>
   <trkpt lat="27.6383100" lon="75.3963100">
    <ele>625</ele>
   </trkpt>
   <trkpt lat="27.6383500" lon="75.3964060">
    <ele>625</ele>
   </trkpt>
   <trkpt lat="27.6383890" lon="75.3965550">
    <ele>627</ele>
   </trkpt>
   <trkpt lat="27.6384120" lon="75.3966480">
    <ele>625</ele>
   </trkpt>
   <trkpt lat="27.6384420" lon="75.3966770">
    <ele>625</ele>
   </trkpt>
   <trkpt lat="27.6384800" lon="75.3966850">
    <ele>625</ele>
   </trkpt>
   <trkpt lat="27.6385200" lon="75.3966850">
    <ele>625</ele>
   </trkpt>
   <trkpt lat="27.6385580" lon="75.3966420">
    <ele>626</ele>
   </trkpt>
   <trkpt lat="27.6385650" lon="75.3965920">
    <ele>629</ele>
   </trkpt>
   <trkpt lat="27.6385410" lon="75.3965039">
    <ele>629</ele>
   </trkpt>
   <trkpt lat="27.6385260" lon="75.3964160">
    <ele>631</ele>
   </trkpt>
   <trkpt lat="27.6385310" lon="75.3963610">
    <ele>631</ele>
   </trkpt>
   <trkpt lat="27.6385580" lon="75.3963210">
    <ele>631</ele>
   </trkpt>
   <trkpt lat="27.6385960" lon="75.3963190">
    <ele>631</ele>
   </trkpt>
   <trkpt lat="27.6386360" lon="75.3963290">
    <ele>631</ele>
   </trkpt>
   <trkpt lat="27.6387460" lon="75.3964190">
    <ele>633</ele>
   </trkpt>
   <trkpt lat="27.6388730" lon="75.3965740">
    <ele>631</ele>
   </trkpt>
   <trkpt lat="27.6389390" lon="75.3967260">
    <ele>628</ele>
   </trkpt>
   <trkpt lat="27.6389550" lon="75.3967530">
    <ele>628</ele>
   </trkpt>
   <trkpt lat="27.6389720" lon="75.3967739">
    <ele>628</ele>
   </trkpt>
   <trkpt lat="27.6390090" lon="75.3967890">
    <ele>628</ele>
   </trkpt>
   <trkpt lat="27.6390510" lon="75.3967980">
    <ele>628</ele>
   </trkpt>
   <trkpt lat="27.6390510" lon="75.3967980">
    <ele>628</ele>
   </trkpt>
   <trkpt lat="27.6391011" lon="75.3968566">
    <ele>628</ele>
   </trkpt>
   <trkpt lat="27.6391011" lon="75.3968566">
    <ele>628</ele>
   </trkpt>
   <trkpt lat="27.6391666" lon="75.3969154">
    <ele>628</ele>
   </trkpt>
   <trkpt lat="27.6391666" lon="75.3969154">
    <ele>628</ele>
   </trkpt>
   <trkpt lat="27.6391760" lon="75.3969020">
    <ele>628</ele>
   </trkpt>
   <trkpt lat="27.6392520" lon="75.3968660">
    <ele>628</ele>
   </trkpt>
   <trkpt lat="27.6392760" lon="75.3968580">
    <ele>628</ele>
   </trkpt>
   <trkpt lat="27.6393140" lon="75.3968450">
    <ele>626</ele>
   </trkpt>
   <trkpt lat="27.6393340" lon="75.3968390">
    <ele>626</ele>
   </trkpt>
   <trkpt lat="27.6393640" lon="75.3968300">
    <ele>626</ele>
   </trkpt>
   <trkpt lat="27.6394440" lon="75.3968220">
    <ele>624</ele>
   </trkpt>
   <trkpt lat="27.6394780" lon="75.3968250">
    <ele>624</ele>
   </trkpt>
   <trkpt lat="27.6395350" lon="75.3968400">
    <ele>624</ele>
   </trkpt>
   <trkpt lat="27.6398220" lon="75.3968570">
    <ele>618</ele>
   </trkpt>
   <trkpt lat="27.6398910" lon="75.3968520">
    <ele>618</ele>
   </trkpt>
   <trkpt lat="27.6399410" lon="75.3968400">
    <ele>616</ele>
   </trkpt>
   <trkpt lat="27.6399910" lon="75.3968140">
    <ele>616</ele>
   </trkpt>
   <trkpt lat="27.6399950" lon="75.3968100">
    <ele>616</ele>
   </trkpt>
   <trkpt lat="27.6400410" lon="75.3967710">
    <ele>616</ele>
   </trkpt>
   <trkpt lat="27.6400810" lon="75.3967480">
    <ele>616</ele>
   </trkpt>
   <trkpt lat="27.6401150" lon="75.3967459">
    <ele>616</ele>
   </trkpt>
   <trkpt lat="27.6401630" lon="75.3967710">
    <ele>615</ele>
   </trkpt>
   <trkpt lat="27.6403110" lon="75.3968520">
    <ele>616</ele>
   </trkpt>
   <trkpt lat="27.6407270" lon="75.3970779">
    <ele>615</ele>
   </trkpt>
   <trkpt lat="27.6407800" lon="75.3971120">
    <ele>614</ele>
   </trkpt>
   <trkpt lat="27.6408300" lon="75.3971390">
    <ele>613</ele>
   </trkpt>
   <trkpt lat="27.6408880" lon="75.3971500">
    <ele>613</ele>
   </trkpt>
   <trkpt lat="27.6409540" lon="75.3971500">
    <ele>613</ele>
   </trkpt>
   <trkpt lat="27.6410100" lon="75.3971610">
    <ele>613</ele>
   </trkpt>
   <trkpt lat="27.6410780" lon="75.3971860">
    <ele>613</ele>
   </trkpt>
   <trkpt lat="27.6412050" lon="75.3972080">
    <ele>613</ele>
   </trkpt>
   <trkpt lat="27.6414350" lon="75.3972480">
    <ele>616</ele>
   </trkpt>
   <trkpt lat="27.6424220" lon="75.3974320">
    <ele>622</ele>
   </trkpt>
   <trkpt lat="27.6425120" lon="75.3974230">
    <ele>622</ele>
   </trkpt>
   <trkpt lat="27.6425830" lon="75.3973989">
    <ele>622</ele>
   </trkpt>
   <trkpt lat="27.6427280" lon="75.3973260">
    <ele>621</ele>
   </trkpt>
   <trkpt lat="27.6427700" lon="75.3972950">
    <ele>621</ele>
   </trkpt>
   <trkpt lat="27.6428140" lon="75.3972330">
    <ele>624</ele>
   </trkpt>
   <trkpt lat="27.6428630" lon="75.3971200">
    <ele>624</ele>
   </trkpt>
   <trkpt lat="27.6428900" lon="75.3970810">
    <ele>626</ele>
   </trkpt>
   <trkpt lat="27.6429340" lon="75.3970670">
    <ele>626</ele>
   </trkpt>
   <trkpt lat="27.6429950" lon="75.3970760">
    <ele>626</ele>
   </trkpt>
   <trkpt lat="27.6434240" lon="75.3972440">
    <ele>625</ele>
   </trkpt>
   <trkpt lat="27.6435640" lon="75.3972800">
    <ele>623</ele>
   </trkpt>
   <trkpt lat="27.6436730" lon="75.3972900">
    <ele>623</ele>
   </trkpt>
   <trkpt lat="27.6440710" lon="75.3972980">
    <ele>613</ele>
   </trkpt>
   <trkpt lat="27.6440960" lon="75.3972990">
    <ele>613</ele>
   </trkpt>
   <trkpt lat="27.6441810" lon="75.3972790">
    <ele>611</ele>
   </trkpt>
   <trkpt lat="27.6442340" lon="75.3972340">
    <ele>611</ele>
   </trkpt>
   <trkpt lat="27.6442580" lon="75.3971950">
    <ele>611</ele>
   </trkpt>
   <trkpt lat="27.6442710" lon="75.3971440">
    <ele>611</ele>
   </trkpt>
   <trkpt lat="27.6442680" lon="75.3970760">
    <ele>612</ele>
   </trkpt>
   <trkpt lat="27.6441370" lon="75.3966090">
    <ele>616</ele>
   </trkpt>
   <trkpt lat="27.6441320" lon="75.3965110">
    <ele>617</ele>
   </trkpt>
   <trkpt lat="27.6441320" lon="75.3965110">
    <ele>617</ele>
   </trkpt>
   <trkpt lat="27.6438364" lon="75.3965265">
    <ele>619</ele>
   </trkpt>
   <trkpt lat="27.6438364" lon="75.3965265">
    <ele>619</ele>
   </trkpt>
   <trkpt lat="27.6436390" lon="75.3963882">
    <ele>623</ele>
   </trkpt>
   <trkpt lat="27.6436390" lon="75.3963882">
    <ele>623</ele>
   </trkpt>
   <trkpt lat="27.6434690" lon="75.3961648">
    <ele>627</ele>
   </trkpt>
   <trkpt lat="27.6434690" lon="75.3961648">
    <ele>627</ele>
   </trkpt>
   <trkpt lat="27.6430251" lon="75.3956955">
    <ele>644</ele>
   </trkpt>
   <trkpt lat="27.6430251" lon="75.3956955">
    <ele>644</ele>
   </trkpt>
   <trkpt lat="27.6430149" lon="75.3951996">
    <ele>658</ele>
   </trkpt>
   <trkpt lat="27.6430149" lon="75.3951996">
    <ele>658</ele>
   </trkpt>
   <trkpt lat="27.6430058" lon="75.3950060">
    <ele>661</ele>
   </trkpt>
   <trkpt lat="27.6430058" lon="75.3950060">
    <ele>661</ele>
   </trkpt>
   <trkpt lat="27.6425419" lon="75.3949151">
    <ele>667</ele>
   </trkpt>
   <trkpt lat="27.6420780" lon="75.3948241">
    <ele>675</ele>
   </trkpt>
   <trkpt lat="27.6416140" lon="75.3947331">
    <ele>683</ele>
   </trkpt>
   <trkpt lat="27.6416140" lon="75.3947331">
    <ele>683</ele>
   </trkpt>
   <trkpt lat="27.6416140" lon="75.3947331">
    <ele>683</ele>
   </trkpt>
   <trkpt lat="27.6411154" lon="75.3945717">
    <ele>685</ele>
   </trkpt>
   <trkpt lat="27.6406167" lon="75.3944103">
    <ele>686</ele>
   </trkpt>
   <trkpt lat="27.6406167" lon="75.3944103">
    <ele>686</ele>
   </trkpt>
   <trkpt lat="27.6406167" lon="75.3944103">
    <ele>686</ele>
   </trkpt>
   <trkpt lat="27.6401878" lon="75.3941785">
    <ele>695</ele>
   </trkpt>
   <trkpt lat="27.6397589" lon="75.3939466">
    <ele>702</ele>
   </trkpt>
   <trkpt lat="27.6397589" lon="75.3939466">
    <ele>702</ele>
   </trkpt>
   <trkpt lat="27.6397589" lon="75.3939466">
    <ele>702</ele>
   </trkpt>
   <trkpt lat="27.6391971" lon="75.3937678">
    <ele>700</ele>
   </trkpt>
   <trkpt lat="27.6390850" lon="75.3938809">
    <ele>694</ele>
   </trkpt>
   <trkpt lat="27.6390850" lon="75.3938809">
    <ele>694</ele>
   </trkpt>
   <trkpt lat="27.6391560" lon="75.3939709">
    <ele>698</ele>
   </trkpt>
   <trkpt lat="27.6391700" lon="75.3939989">
    <ele>698</ele>
   </trkpt>
   <trkpt lat="27.6391790" lon="75.3940430">
    <ele>694</ele>
   </trkpt>
   <trkpt lat="27.6391780" lon="75.3941070">
    <ele>694</ele>
   </trkpt>
   <trkpt lat="27.6391710" lon="75.3941310">
    <ele>694</ele>
   </trkpt>
   <trkpt lat="27.6391580" lon="75.3941550">
    <ele>694</ele>
   </trkpt>
   <trkpt lat="27.6391300" lon="75.3941650">
    <ele>689</ele>
   </trkpt>
   <trkpt lat="27.6391070" lon="75.3941610">
    <ele>689</ele>
   </trkpt>
   <trkpt lat="27.6390650" lon="75.3941220">
    <ele>689</ele>
   </trkpt>
   <trkpt lat="27.6389080" lon="75.3939460">
    <ele>688</ele>
   </trkpt>
   <trkpt lat="27.6383680" lon="75.3934620">
    <ele>684</ele>
   </trkpt>
   <trkpt lat="27.6382660" lon="75.3934330">
    <ele>684</ele>
   </trkpt>
   <trkpt lat="27.6382400" lon="75.3934529">
    <ele>684</ele>
   </trkpt>
   <trkpt lat="27.6382440" lon="75.3935220">
    <ele>677</ele>
   </trkpt>
   <trkpt lat="27.6383380" lon="75.3936480">
    <ele>677</ele>
   </trkpt>
   <trkpt lat="27.6389170" lon="75.3944549">
    <ele>673</ele>
   </trkpt>
   <trkpt lat="27.6392870" lon="75.3950210">
    <ele>669</ele>
   </trkpt>
   <trkpt lat="27.6393910" lon="75.3951050">
    <ele>661</ele>
   </trkpt>
   <trkpt lat="27.6395350" lon="75.3951640">
    <ele>663</ele>
   </trkpt>
   <trkpt lat="27.6395830" lon="75.3951870">
    <ele>663</ele>
   </trkpt>
   <trkpt lat="27.6395990" lon="75.3952220">
    <ele>656</ele>
   </trkpt>
   <trkpt lat="27.6395960" lon="75.3952950">
    <ele>656</ele>
   </trkpt>
   <trkpt lat="27.6395730" lon="75.3953380">
    <ele>656</ele>
   </trkpt>
   <trkpt lat="27.6395140" lon="75.3953570">
    <ele>656</ele>
   </trkpt>
   <trkpt lat="27.6394200" lon="75.3953260">
    <ele>655</ele>
   </trkpt>
   <trkpt lat="27.6392710" lon="75.3952050">
    <ele>659</ele>
   </trkpt>
   <trkpt lat="27.6392060" lon="75.3951940">
    <ele>659</ele>
   </trkpt>
   <trkpt lat="27.6391740" lon="75.3952490">
    <ele>653</ele>
   </trkpt>
   <trkpt lat="27.6391970" lon="75.3953490">
    <ele>653</ele>
   </trkpt>
   <trkpt lat="27.6393700" lon="75.3955850">
    <ele>645</ele>
   </trkpt>
   <trkpt lat="27.6393960" lon="75.3956310">
    <ele>645</ele>
   </trkpt>
   <trkpt lat="27.6393970" lon="75.3956740">
    <ele>645</ele>
   </trkpt>
   <trkpt lat="27.6393800" lon="75.3957150">
    <ele>645</ele>
   </trkpt>
   <trkpt lat="27.6393390" lon="75.3957340">
    <ele>645</ele>
   </trkpt>
   <trkpt lat="27.6392760" lon="75.3957490">
    <ele>643</ele>
   </trkpt>
   <trkpt lat="27.6392300" lon="75.3957630">
    <ele>643</ele>
   </trkpt>
   <trkpt lat="27.6391940" lon="75.3957940">
    <ele>643</ele>
   </trkpt>
   <trkpt lat="27.6391850" lon="75.3958120">
    <ele>643</ele>
   </trkpt>
   <trkpt lat="27.6391860" lon="75.3958650">
    <ele>643</ele>
   </trkpt>
   <trkpt lat="27.6392290" lon="75.3959470">
    <ele>641</ele>
   </trkpt>
   <trkpt lat="27.6392710" lon="75.3960510">
    <ele>641</ele>
   </trkpt>
   <trkpt lat="27.6392700" lon="75.3960880">
    <ele>638</ele>
   </trkpt>
   <trkpt lat="27.6392570" lon="75.3961099">
    <ele>638</ele>
   </trkpt>
   <trkpt lat="27.6392270" lon="75.3961250">
    <ele>638</ele>
   </trkpt>
   <trkpt lat="27.6391850" lon="75.3961160">
    <ele>638</ele>
   </trkpt>
   <trkpt lat="27.6388820" lon="75.3958490">
    <ele>641</ele>
   </trkpt>
   <trkpt lat="27.6385870" lon="75.3956220">
    <ele>637</ele>
   </trkpt>
   <trkpt lat="27.6385430" lon="75.3956070">
    <ele>637</ele>
   </trkpt>
   <trkpt lat="27.6384980" lon="75.3956030">
    <ele>633</ele>
   </trkpt>
   <trkpt lat="27.6384780" lon="75.3956140">
    <ele>633</ele>
   </trkpt>
   <trkpt lat="27.6384600" lon="75.3956380">
    <ele>633</ele>
   </trkpt>
   <trkpt lat="27.6384520" lon="75.3956760">
    <ele>633</ele>
   </trkpt>
   <trkpt lat="27.6384490" lon="75.3957150">
    <ele>633</ele>
   </trkpt>
   <trkpt lat="27.6385380" lon="75.3958540">
    <ele>637</ele>
   </trkpt>
   <trkpt lat="27.6389580" lon="75.3963880">
    <ele>634</ele>
   </trkpt>
   <trkpt lat="27.6390620" lon="75.3965200">
    <ele>632</ele>
   </trkpt>
   <trkpt lat="27.6391360" lon="75.3965680">
    <ele>631</ele>
   </trkpt>
   <trkpt lat="27.6392450" lon="75.3966180">
    <ele>628</ele>
   </trkpt>
   <trkpt lat="27.6392600" lon="75.3966389">
    <ele>628</ele>
   </trkpt>
   <trkpt lat="27.6392650" lon="75.3966610">
    <ele>628</ele>
   </trkpt>
   <trkpt lat="27.6392660" lon="75.3966850">
    <ele>628</ele>
   </trkpt>
   <trkpt lat="27.6392520" lon="75.3967100">
    <ele>628</ele>
   </trkpt>
   <trkpt lat="27.6392200" lon="75.3967330">
    <ele>628</ele>
   </trkpt>
   <trkpt lat="27.6391940" lon="75.3967520">
    <ele>628</ele>
   </trkpt>
   <trkpt lat="27.6390510" lon="75.3967980">
    <ele>628</ele>
   </trkpt>
   <trkpt lat="27.6390090" lon="75.3967890">
    <ele>628</ele>
   </trkpt>
   <trkpt lat="27.6389720" lon="75.3967739">
    <ele>628</ele>
   </trkpt>
   <trkpt lat="27.6389550" lon="75.3967530">
    <ele>628</ele>
   </trkpt>
   <trkpt lat="27.6389390" lon="75.3967260">
    <ele>628</ele>
   </trkpt>
   <trkpt lat="27.6388730" lon="75.3965740">
    <ele>631</ele>
   </trkpt>
   <trkpt lat="27.6387460" lon="75.3964190">
    <ele>633</ele>
   </trkpt>
   <trkpt lat="27.6386360" lon="75.3963290">
    <ele>631</ele>
   </trkpt>
   <trkpt lat="27.6385960" lon="75.3963190">
    <ele>631</ele>
   </trkpt>
   <trkpt lat="27.6385580" lon="75.3963210">
    <ele>631</ele>
   </trkpt>
   <trkpt lat="27.6385310" lon="75.3963610">
    <ele>631</ele>
   </trkpt>
   <trkpt lat="27.6385260" lon="75.3964160">
    <ele>631</ele>
   </trkpt>
   <trkpt lat="27.6385410" lon="75.3965039">
    <ele>629</ele>
   </trkpt>
   <trkpt lat="27.6385650" lon="75.3965920">
    <ele>629</ele>
   </trkpt>
   <trkpt lat="27.6385580" lon="75.3966420">
    <ele>626</ele>
   </trkpt>
   <trkpt lat="27.6385200" lon="75.3966850">
    <ele>625</ele>
   </trkpt>
   <trkpt lat="27.6384800" lon="75.3966850">
    <ele>625</ele>
   </trkpt>
   <trkpt lat="27.6384420" lon="75.3966770">
    <ele>625</ele>
   </trkpt>
   <trkpt lat="27.6384120" lon="75.3966480">
    <ele>625</ele>
   </trkpt>
   <trkpt lat="27.6383890" lon="75.3965550">
    <ele>627</ele>
   </trkpt>
   <trkpt lat="27.6383500" lon="75.3964060">
    <ele>625</ele>
   </trkpt>
   <trkpt lat="27.6383100" lon="75.3963100">
    <ele>625</ele>
   </trkpt>
   <trkpt lat="27.6382720" lon="75.3962860">
    <ele>625</ele>
   </trkpt>
   <trkpt lat="27.6382420" lon="75.3962990">
    <ele>625</ele>
   </trkpt>
   <trkpt lat="27.6382150" lon="75.3963250">
    <ele>622</ele>
   </trkpt>
   <trkpt lat="27.6382090" lon="75.3963620">
    <ele>622</ele>
   </trkpt>
   <trkpt lat="27.6382020" lon="75.3964190">
    <ele>622</ele>
   </trkpt>
   <trkpt lat="27.6381990" lon="75.3964960">
    <ele>622</ele>
   </trkpt>
   <trkpt lat="27.6381890" lon="75.3965210">
    <ele>622</ele>
   </trkpt>
   <trkpt lat="27.6381600" lon="75.3965500">
    <ele>622</ele>
   </trkpt>
   <trkpt lat="27.6381020" lon="75.3965420">
    <ele>622</ele>
   </trkpt>
   <trkpt lat="27.6380770" lon="75.3965140">
    <ele>622</ele>
   </trkpt>
   <trkpt lat="27.6380640" lon="75.3964760">
    <ele>620</ele>
   </trkpt>
   <trkpt lat="27.6380550" lon="75.3963040">
    <ele>619</ele>
   </trkpt>
   <trkpt lat="27.6380520" lon="75.3962140">
    <ele>620</ele>
   </trkpt>
   <trkpt lat="27.6380160" lon="75.3961580">
    <ele>620</ele>
   </trkpt>
   <trkpt lat="27.6379820" lon="75.3961460">
    <ele>620</ele>
   </trkpt>
   <trkpt lat="27.6379540" lon="75.3961570">
    <ele>620</ele>
   </trkpt>
   <trkpt lat="27.6379290" lon="75.3962020">
    <ele>620</ele>
   </trkpt>
   <trkpt lat="27.6379210" lon="75.3962800">
    <ele>619</ele>
   </trkpt>
   <trkpt lat="27.6378960" lon="75.3964030">
    <ele>617</ele>
   </trkpt>
   <trkpt lat="27.6378650" lon="75.3964310">
    <ele>618</ele>
   </trkpt>
   <trkpt lat="27.6378290" lon="75.3964380">
    <ele>618</ele>
   </trkpt>
   <trkpt lat="27.6378040" lon="75.3964280">
    <ele>618</ele>
   </trkpt>
   <trkpt lat="27.6377870" lon="75.3964090">
    <ele>617</ele>
   </trkpt>
   <trkpt lat="27.6377720" lon="75.3962100">
    <ele>618</ele>
   </trkpt>
   <trkpt lat="27.6377550" lon="75.3961780">
    <ele>615</ele>
   </trkpt>
   <trkpt lat="27.6377340" lon="75.3961630">
    <ele>615</ele>
   </trkpt>
   <trkpt lat="27.6376960" lon="75.3961650">
    <ele>615</ele>
   </trkpt>
   <trkpt lat="27.6376690" lon="75.3961800">
    <ele>615</ele>
   </trkpt>
   <trkpt lat="27.6375950" lon="75.3962990">
    <ele>611</ele>
   </trkpt>
   <trkpt lat="27.6375620" lon="75.3963820">
    <ele>611</ele>
   </trkpt>
   <trkpt lat="27.6375390" lon="75.3964200">
    <ele>611</ele>
   </trkpt>
   <trkpt lat="27.6375130" lon="75.3964510">
    <ele>613</ele>
   </trkpt>
   <trkpt lat="27.6374700" lon="75.3964710">
    <ele>613</ele>
   </trkpt>
   <trkpt lat="27.6374290" lon="75.3964770">
    <ele>611</ele>
   </trkpt>
   <trkpt lat="27.6372270" lon="75.3964820">
    <ele>610</ele>
   </trkpt>
   <trkpt lat="27.6369110" lon="75.3964370">
    <ele>606</ele>
   </trkpt>
   <trkpt lat="27.6367920" lon="75.3964640">
    <ele>604</ele>
   </trkpt>
   <trkpt lat="27.6366710" lon="75.3965350">
    <ele>602</ele>
   </trkpt>
   <trkpt lat="27.6366020" lon="75.3965480">
    <ele>602</ele>
   </trkpt>
   <trkpt lat="27.6365440" lon="75.3965510">
    <ele>599</ele>
   </trkpt>
   <trkpt lat="27.6362650" lon="75.3965000">
    <ele>597</ele>
   </trkpt>
   <trkpt lat="27.6359860" lon="75.3964520">
    <ele>592</ele>
   </trkpt>
   <trkpt lat="27.6358820" lon="75.3964570">
    <ele>590</ele>
   </trkpt>
   <trkpt lat="27.6357630" lon="75.3964730">
    <ele>589</ele>
   </trkpt>
   <trkpt lat="27.6352690" lon="75.3965140">
    <ele>586</ele>
   </trkpt>
   <trkpt lat="27.6347670" lon="75.3965750">
    <ele>586</ele>
   </trkpt>
   <trkpt lat="27.6335540" lon="75.3968630">
    <ele>577</ele>
   </trkpt>
   <trkpt lat="27.6333200" lon="75.3969150">
    <ele>574</ele>
   </trkpt>
   <trkpt lat="27.6331040" lon="75.3969670">
    <ele>573</ele>
   </trkpt>
   <trkpt lat="27.6328620" lon="75.3970530">
    <ele>573</ele>
   </trkpt>
   <trkpt lat="27.6324280" lon="75.3972780">
    <ele>571</ele>
   </trkpt>
   <trkpt lat="27.6322760" lon="75.3973010">
    <ele>570</ele>
   </trkpt>
   <trkpt lat="27.6320670" lon="75.3972960">
    <ele>570</ele>
   </trkpt>
   <trkpt lat="27.6317140" lon="75.3972129">
    <ele>571</ele>
   </trkpt>
   <trkpt lat="27.6310210" lon="75.3969480">
    <ele>570</ele>
   </trkpt>
   <trkpt lat="27.6309080" lon="75.3969390">
    <ele>570</ele>
   </trkpt>
   <trkpt lat="27.6308300" lon="75.3969870">
    <ele>570</ele>
   </trkpt>
   <trkpt lat="27.6305750" lon="75.3976200">
    <ele>566</ele>
   </trkpt>
   <trkpt lat="27.6303830" lon="75.3977910">
    <ele>566</ele>
   </trkpt>
   <trkpt lat="27.6302510" lon="75.3978750">
    <ele>567</ele>
   </trkpt>
   <trkpt lat="27.6302110" lon="75.3979640">
    <ele>567</ele>
   </trkpt>
   <trkpt lat="27.6301870" lon="75.3981560">
    <ele>567</ele>
   </trkpt>
   <trkpt lat="27.6301330" lon="75.3992770">
    <ele>567</ele>
   </trkpt>
   <trkpt lat="27.6300350" lon="75.3995630">
    <ele>568</ele>
   </trkpt>
   <trkpt lat="27.6298940" lon="75.3998950">
    <ele>571</ele>
   </trkpt>
   <trkpt lat="27.6297250" lon="75.4002120">
    <ele>573</ele>
   </trkpt>
   <trkpt lat="27.6296870" lon="75.4002840">
    <ele>573</ele>
   </trkpt>
   <trkpt lat="27.6295880" lon="75.4005100">
    <ele>574</ele>
   </trkpt>
   <trkpt lat="27.6295460" lon="75.4005720">
    <ele>575</ele>
   </trkpt>
   <trkpt lat="27.6294950" lon="75.4006220">
    <ele>575</ele>
   </trkpt>
   <trkpt lat="27.6292100" lon="75.4008020">
    <ele>574</ele>
   </trkpt>
   <trkpt lat="27.6290380" lon="75.4009430">
    <ele>571</ele>
   </trkpt>
   <trkpt lat="27.6288940" lon="75.4009930">
    <ele>571</ele>
   </trkpt>
   <trkpt lat="27.6286370" lon="75.4010290">
    <ele>571</ele>
   </trkpt>
   <trkpt lat="27.6285460" lon="75.4010470">
    <ele>571</ele>
   </trkpt>
   <trkpt lat="27.6284350" lon="75.4010700">
    <ele>568</ele>
   </trkpt>
   <trkpt lat="27.6283770" lon="75.4010980">
    <ele>568</ele>
   </trkpt>
   <trkpt lat="27.6283260" lon="75.4011529">
    <ele>568</ele>
   </trkpt>
   <trkpt lat="27.6282890" lon="75.4012190">
    <ele>568</ele>
   </trkpt>
   <trkpt lat="27.6282640" lon="75.4012980">
    <ele>567</ele>
   </trkpt>
   <trkpt lat="27.6282670" lon="75.4013910">
    <ele>567</ele>
   </trkpt>
   <trkpt lat="27.6283330" lon="75.4020380">
    <ele>562</ele>
   </trkpt>
   <trkpt lat="27.6283230" lon="75.4021030">
    <ele>561</ele>
   </trkpt>
   <trkpt lat="27.6282830" lon="75.4021690">
    <ele>561</ele>
   </trkpt>
   <trkpt lat="27.6282480" lon="75.4022169">
    <ele>561</ele>
   </trkpt>
   <trkpt lat="27.6281550" lon="75.4023050">
    <ele>561</ele>
   </trkpt>
   <trkpt lat="27.6280850" lon="75.4023780">
    <ele>561</ele>
   </trkpt>
   <trkpt lat="27.6280010" lon="75.4024230">
    <ele>561</ele>
   </trkpt>
   <trkpt lat="27.6279340" lon="75.4024100">
    <ele>561</ele>
   </trkpt>
   <trkpt lat="27.6277880" lon="75.4023770">
    <ele>561</ele>
   </trkpt>
   <trkpt lat="27.6277280" lon="75.4023980">
    <ele>561</ele>
   </trkpt>
   <trkpt lat="27.6276900" lon="75.4024580">
    <ele>562</ele>
   </trkpt>
   <trkpt lat="27.6276490" lon="75.4025520">
    <ele>562</ele>
   </trkpt>
   <trkpt lat="27.6274610" lon="75.4029460">
    <ele>563</ele>
   </trkpt>
   <trkpt lat="27.6274460" lon="75.4030240">
    <ele>564</ele>
   </trkpt>
   <trkpt lat="27.6274550" lon="75.4030870">
    <ele>564</ele>
   </trkpt>
   <trkpt lat="27.6274810" lon="75.4031660">
    <ele>566</ele>
   </trkpt>
   <trkpt lat="27.6277450" lon="75.4033890">
    <ele>565</ele>
   </trkpt>
   <trkpt lat="27.6277730" lon="75.4034300">
    <ele>565</ele>
   </trkpt>
   <trkpt lat="27.6277960" lon="75.4034730">
    <ele>567</ele>
   </trkpt>
   <trkpt lat="27.6278200" lon="75.4035250">
    <ele>567</ele>
   </trkpt>
   <trkpt lat="27.6279190" lon="75.4038030">
    <ele>568</ele>
   </trkpt>
   <trkpt lat="27.6279460" lon="75.4038630">
    <ele>569</ele>
   </trkpt>
   <trkpt lat="27.6279900" lon="75.4039220">
    <ele>569</ele>
   </trkpt>
   <trkpt lat="27.6280650" lon="75.4039890">
    <ele>568</ele>
   </trkpt>
   <trkpt lat="27.6281540" lon="75.4040830">
    <ele>568</ele>
   </trkpt>
   <trkpt lat="27.6282630" lon="75.4042670">
    <ele>567</ele>
   </trkpt>
   <trkpt lat="27.6282980" lon="75.4043260">
    <ele>567</ele>
   </trkpt>
   <trkpt lat="27.6283740" lon="75.4045000">
    <ele>567</ele>
   </trkpt>
   <trkpt lat="27.6284330" lon="75.4045340">
    <ele>567</ele>
   </trkpt>
   <trkpt lat="27.6286240" lon="75.4045070">
    <ele>567</ele>
   </trkpt>
   <trkpt lat="27.6286960" lon="75.4045110">
    <ele>566</ele>
   </trkpt>
   <trkpt lat="27.6288270" lon="75.4045730">
    <ele>566</ele>
   </trkpt>
   <trkpt lat="27.6289190" lon="75.4046510">
    <ele>566</ele>
   </trkpt>
   <trkpt lat="27.6293610" lon="75.4048490">
    <ele>567</ele>
   </trkpt>
   <trkpt lat="27.6298810" lon="75.4052180">
    <ele>565</ele>
   </trkpt>
   <trkpt lat="27.6300880" lon="75.4054309">
    <ele>565</ele>
   </trkpt>
   <trkpt lat="27.6301530" lon="75.4054710">
    <ele>565</ele>
   </trkpt>
   <trkpt lat="27.6302230" lon="75.4054790">
    <ele>564</ele>
   </trkpt>
   <trkpt lat="27.6303180" lon="75.4054290">
    <ele>564</ele>
   </trkpt>
   <trkpt lat="27.6308190" lon="75.4050680">
    <ele>562</ele>
   </trkpt>
   <trkpt lat="27.6308840" lon="75.4050530">
    <ele>562</ele>
   </trkpt>
   <trkpt lat="27.6309390" lon="75.4050870">
    <ele>562</ele>
   </trkpt>
   <trkpt lat="27.6310920" lon="75.4051710">
    <ele>562</ele>
   </trkpt>
   <trkpt lat="27.6313090" lon="75.4052230">
    <ele>563</ele>
   </trkpt>
   <trkpt lat="27.6315900" lon="75.4053250">
    <ele>564</ele>
   </trkpt>
   <trkpt lat="27.6318380" lon="75.4053670">
    <ele>564</ele>
   </trkpt>
   <trkpt lat="27.6320590" lon="75.4054260">
    <ele>564</ele>
   </trkpt>
   <trkpt lat="27.6321490" lon="75.4054309">
    <ele>563</ele>
   </trkpt>
   <trkpt lat="27.6322260" lon="75.4054190">
    <ele>563</ele>
   </trkpt>
   <trkpt lat="27.6323140" lon="75.4053950">
    <ele>563</ele>
   </trkpt>
   <trkpt lat="27.6323870" lon="75.4053820">
    <ele>563</ele>
   </trkpt>
   <trkpt lat="27.6325150" lon="75.4053980">
    <ele>562</ele>
   </trkpt>
   <trkpt lat="27.6327610" lon="75.4054720">
    <ele>560</ele>
   </trkpt>
   <trkpt lat="27.6328350" lon="75.4054920">
    <ele>560</ele>
   </trkpt>
   <trkpt lat="27.6329130" lon="75.4055390">
    <ele>558</ele>
   </trkpt>
   <trkpt lat="27.6330010" lon="75.4056240">
    <ele>558</ele>
   </trkpt>
   <trkpt lat="27.6334150" lon="75.4060040">
    <ele>553</ele>
   </trkpt>
   <trkpt lat="27.6335590" lon="75.4061360">
    <ele>554</ele>
   </trkpt>
   <trkpt lat="27.6336310" lon="75.4062189">
    <ele>554</ele>
   </trkpt>
   <trkpt lat="27.6339650" lon="75.4066660">
    <ele>558</ele>
   </trkpt>
   <trkpt lat="27.6343340" lon="75.4069950">
    <ele>559</ele>
   </trkpt>
   <trkpt lat="27.6345150" lon="75.4071050">
    <ele>559</ele>
   </trkpt>
   <trkpt lat="27.6347540" lon="75.4072520">
    <ele>557</ele>
   </trkpt>
   <trkpt lat="27.6352890" lon="75.4076040">
    <ele>555</ele>
   </trkpt>
   <trkpt lat="27.6354480" lon="75.4076610">
    <ele>555</ele>
   </trkpt>
   <trkpt lat="27.6355550" lon="75.4076610">
    <ele>554</ele>
   </trkpt>
   <trkpt lat="27.6357700" lon="75.4076020">
    <ele>554</ele>
   </trkpt>
   <trkpt lat="27.6358530" lon="75.4076110">
    <ele>553</ele>
   </trkpt>
   <trkpt lat="27.6359450" lon="75.4076210">
    <ele>553</ele>
   </trkpt>
   <trkpt lat="27.6360110" lon="75.4076440">
    <ele>553</ele>
   </trkpt>
   <trkpt lat="27.6360110" lon="75.4076440">
    <ele>553</ele>
   </trkpt>
   <trkpt lat="27.6366130" lon="75.4078590">
    <ele>553</ele>
   </trkpt>
   <trkpt lat="27.6370230" lon="75.4080050">
    <ele>553</ele>
   </trkpt>
   <trkpt lat="27.6372640" lon="75.4080360">
    <ele>552</ele>
   </trkpt>
   <trkpt lat="27.6379570" lon="75.4080180">
    <ele>556</ele>
   </trkpt>
   <trkpt lat="27.6385610" lon="75.4080460">
    <ele>555</ele>
   </trkpt>
   <trkpt lat="27.6386320" lon="75.4080490">
    <ele>555</ele>
   </trkpt>
   <trkpt lat="27.6388670" lon="75.4081320">
    <ele>552</ele>
   </trkpt>
   <trkpt lat="27.6392610" lon="75.4082510">
    <ele>550</ele>
   </trkpt>
   <trkpt lat="27.6394900" lon="75.4083680">
    <ele>545</ele>
   </trkpt>
   <trkpt lat="27.6399060" lon="75.4084060">
    <ele>539</ele>
   </trkpt>
   <trkpt lat="27.6402320" lon="75.4085070">
    <ele>539</ele>
   </trkpt>
   <trkpt lat="27.6405310" lon="75.4086810">
    <ele>540</ele>
   </trkpt>
   <trkpt lat="27.6406920" lon="75.4087270">
    <ele>540</ele>
   </trkpt>
   <trkpt lat="27.6408290" lon="75.4087040">
    <ele>540</ele>
   </trkpt>
   <trkpt lat="27.6409700" lon="75.4086360">
    <ele>540</ele>
   </trkpt>
   <trkpt lat="27.6411320" lon="75.4085290">
    <ele>542</ele>
   </trkpt>
   <trkpt lat="27.6412710" lon="75.4085060">
    <ele>543</ele>
   </trkpt>
   <trkpt lat="27.6414270" lon="75.4085690">
    <ele>545</ele>
   </trkpt>
   <trkpt lat="27.6415340" lon="75.4086480">
    <ele>544</ele>
   </trkpt>
   <trkpt lat="27.6416290" lon="75.4087720">
    <ele>545</ele>
   </trkpt>
   <trkpt lat="27.6417740" lon="75.4089480">
    <ele>546</ele>
   </trkpt>
   <trkpt lat="27.6420460" lon="75.4091630">
    <ele>547</ele>
   </trkpt>
   <trkpt lat="27.6422960" lon="75.4093130">
    <ele>546</ele>
   </trkpt>
   <trkpt lat="27.6428980" lon="75.4095460">
    <ele>543</ele>
   </trkpt>
   <trkpt lat="27.6429920" lon="75.4095940">
    <ele>543</ele>
   </trkpt>
   <trkpt lat="27.6430790" lon="75.4096520">
    <ele>542</ele>
   </trkpt>
   <trkpt lat="27.6431950" lon="75.4097610">
    <ele>543</ele>
   </trkpt>
   <trkpt lat="27.6435660" lon="75.4102210">
    <ele>543</ele>
   </trkpt>
   <trkpt lat="27.6438370" lon="75.4105180">
    <ele>540</ele>
   </trkpt>
   <trkpt lat="27.6439530" lon="75.4106140">
    <ele>539</ele>
   </trkpt>
   <trkpt lat="27.6440710" lon="75.4106860">
    <ele>537</ele>
   </trkpt>
   <trkpt lat="27.6441900" lon="75.4107350">
    <ele>537</ele>
   </trkpt>
   <trkpt lat="27.6454720" lon="75.4111999">
    <ele>536</ele>
   </trkpt>
   <trkpt lat="27.6455660" lon="75.4112540">
    <ele>536</ele>
   </trkpt>
   <trkpt lat="27.6456520" lon="75.4113140">
    <ele>536</ele>
   </trkpt>
   <trkpt lat="27.6462230" lon="75.4117940">
    <ele>530</ele>
   </trkpt>
   <trkpt lat="27.6463250" lon="75.4118950">
    <ele>531</ele>
   </trkpt>
   <trkpt lat="27.6464320" lon="75.4120020">
    <ele>531</ele>
   </trkpt>
   <trkpt lat="27.6466070" lon="75.4122110">
    <ele>532</ele>
   </trkpt>
   <trkpt lat="27.6466580" lon="75.4122900">
    <ele>532</ele>
   </trkpt>
   <trkpt lat="27.6466960" lon="75.4123770">
    <ele>532</ele>
   </trkpt>
   <trkpt lat="27.6467240" lon="75.4124810">
    <ele>532</ele>
   </trkpt>
   <trkpt lat="27.6467540" lon="75.4129310">
    <ele>531</ele>
   </trkpt>
   <trkpt lat="27.6467750" lon="75.4130640">
    <ele>531</ele>
   </trkpt>
   <trkpt lat="27.6468850" lon="75.4134790">
    <ele>532</ele>
   </trkpt>
   <trkpt lat="27.6470280" lon="75.4140130">
    <ele>530</ele>
   </trkpt>
   <trkpt lat="27.6470620" lon="75.4141590">
    <ele>528</ele>
   </trkpt>
   <trkpt lat="27.6470880" lon="75.4142959">
    <ele>528</ele>
   </trkpt>
   <trkpt lat="27.6471300" lon="75.4147360">
    <ele>528</ele>
   </trkpt>
   <trkpt lat="27.6471430" lon="75.4148570">
    <ele>528</ele>
   </trkpt>
   <trkpt lat="27.6471670" lon="75.4149489">
    <ele>528</ele>
   </trkpt>
   <trkpt lat="27.6472080" lon="75.4150250">
    <ele>527</ele>
   </trkpt>
   <trkpt lat="27.6473960" lon="75.4152270">
    <ele>526</ele>
   </trkpt>
   <trkpt lat="27.6474760" lon="75.4152840">
    <ele>526</ele>
   </trkpt>
   <trkpt lat="27.6478050" lon="75.4154310">
    <ele>523</ele>
   </trkpt>
   <trkpt lat="27.6482790" lon="75.4156920">
    <ele>523</ele>
   </trkpt>
   <trkpt lat="27.6485270" lon="75.4158290">
    <ele>523</ele>
   </trkpt>
   <trkpt lat="27.6486280" lon="75.4159060">
    <ele>521</ele>
   </trkpt>
   <trkpt lat="27.6487210" lon="75.4160140">
    <ele>522</ele>
   </trkpt>
   <trkpt lat="27.6488510" lon="75.4161810">
    <ele>524</ele>
   </trkpt>
   <trkpt lat="27.6490540" lon="75.4164420">
    <ele>523</ele>
   </trkpt>
   <trkpt lat="27.6495290" lon="75.4170980">
    <ele>521</ele>
   </trkpt>
   <trkpt lat="27.6497820" lon="75.4174309">
    <ele>523</ele>
   </trkpt>
   <trkpt lat="27.6501080" lon="75.4177760">
    <ele>525</ele>
   </trkpt>
   <trkpt lat="27.6504450" lon="75.4181640">
    <ele>524</ele>
   </trkpt>
   <trkpt lat="27.6507610" lon="75.4185810">
    <ele>520</ele>
   </trkpt>
   <trkpt lat="27.6508340" lon="75.4186930">
    <ele>520</ele>
   </trkpt>
   <trkpt lat="27.6508870" lon="75.4188150">
    <ele>520</ele>
   </trkpt>
   <trkpt lat="27.6509280" lon="75.4189770">
    <ele>520</ele>
   </trkpt>
   <trkpt lat="27.6509680" lon="75.4192750">
    <ele>519</ele>
   </trkpt>
   <trkpt lat="27.6509850" lon="75.4193480">
    <ele>519</ele>
   </trkpt>
   <trkpt lat="27.6510140" lon="75.4194160">
    <ele>519</ele>
   </trkpt>
   <trkpt lat="27.6510700" lon="75.4194710">
    <ele>518</ele>
   </trkpt>
   <trkpt lat="27.6514490" lon="75.4196850">
    <ele>521</ele>
   </trkpt>
   <trkpt lat="27.6518240" lon="75.4198030">
    <ele>524</ele>
   </trkpt>
   <trkpt lat="27.6523380" lon="75.4198870">
    <ele>521</ele>
   </trkpt>
   <trkpt lat="27.6526020" lon="75.4199299">
    <ele>520</ele>
   </trkpt>
   <trkpt lat="27.6526820" lon="75.4199570">
    <ele>521</ele>
   </trkpt>
   <trkpt lat="27.6527690" lon="75.4200070">
    <ele>521</ele>
   </trkpt>
   <trkpt lat="27.6528460" lon="75.4200730">
    <ele>520</ele>
   </trkpt>
   <trkpt lat="27.6529440" lon="75.4201830">
    <ele>521</ele>
   </trkpt>
   <trkpt lat="27.6533130" lon="75.4206510">
    <ele>519</ele>
   </trkpt>
   <trkpt lat="27.6539200" lon="75.4214100">
    <ele>519</ele>
   </trkpt>
   <trkpt lat="27.6545320" lon="75.4221440">
    <ele>524</ele>
   </trkpt>
   <trkpt lat="27.6550330" lon="75.4227440">
    <ele>524</ele>
   </trkpt>
   <trkpt lat="27.6556940" lon="75.4235820">
    <ele>517</ele>
   </trkpt>
   <trkpt lat="27.6563690" lon="75.4244310">
    <ele>512</ele>
   </trkpt>
   <trkpt lat="27.6565250" lon="75.4246270">
    <ele>512</ele>
   </trkpt>
   <trkpt lat="27.6565880" lon="75.4247060">
    <ele>512</ele>
   </trkpt>
   <trkpt lat="27.6567280" lon="75.4248500">
    <ele>511</ele>
   </trkpt>
   <trkpt lat="27.6568110" lon="75.4249150">
    <ele>511</ele>
   </trkpt>
   <trkpt lat="27.6568610" lon="75.4249530">
    <ele>511</ele>
   </trkpt>
   <trkpt lat="27.6569640" lon="75.4250110">
    <ele>512</ele>
   </trkpt>
   <trkpt lat="27.6571320" lon="75.4251040">
    <ele>512</ele>
   </trkpt>
   <trkpt lat="27.6583350" lon="75.4256720">
    <ele>510</ele>
   </trkpt>
   <trkpt lat="27.6598530" lon="75.4263810">
    <ele>509</ele>
   </trkpt>
   <trkpt lat="27.6603080" lon="75.4266449">
    <ele>509</ele>
   </trkpt>
   <trkpt lat="27.6611960" lon="75.4271620">
    <ele>505</ele>
   </trkpt>
   <trkpt lat="27.6613420" lon="75.4272820">
    <ele>505</ele>
   </trkpt>
   <trkpt lat="27.6614760" lon="75.4274170">
    <ele>505</ele>
   </trkpt>
   <trkpt lat="27.6616330" lon="75.4276340">
    <ele>505</ele>
   </trkpt>
   <trkpt lat="27.6624540" lon="75.4292100">
    <ele>504</ele>
   </trkpt>
   <trkpt lat="27.6628180" lon="75.4299100">
    <ele>507</ele>
   </trkpt>
   <trkpt lat="27.6628800" lon="75.4300279">
    <ele>507</ele>
   </trkpt>
   <trkpt lat="27.6634960" lon="75.4309750">
    <ele>510</ele>
   </trkpt>
   <trkpt lat="27.6637780" lon="75.4314080">
    <ele>509</ele>
   </trkpt>
   <trkpt lat="27.6646960" lon="75.4327050">
    <ele>501</ele>
   </trkpt>
   <trkpt lat="27.6651600" lon="75.4333730">
    <ele>503</ele>
   </trkpt>
   <trkpt lat="27.6653270" lon="75.4335110">
    <ele>505</ele>
   </trkpt>
   <trkpt lat="27.6666090" lon="75.4343150">
    <ele>504</ele>
   </trkpt>
   <trkpt lat="27.6683310" lon="75.4353530">
    <ele>503</ele>
   </trkpt>
   <trkpt lat="27.6695840" lon="75.4361100">
    <ele>500</ele>
   </trkpt>
   <trkpt lat="27.6696960" lon="75.4362210">
    <ele>499</ele>
   </trkpt>
   <trkpt lat="27.6705800" lon="75.4374440">
    <ele>495</ele>
   </trkpt>
   <trkpt lat="27.6710910" lon="75.4381120">
    <ele>497</ele>
   </trkpt>
   <trkpt lat="27.6712180" lon="75.4382150">
    <ele>498</ele>
   </trkpt>
   <trkpt lat="27.6718670" lon="75.4385960">
    <ele>495</ele>
   </trkpt>
   <trkpt lat="27.6731890" lon="75.4393450">
    <ele>496</ele>
   </trkpt>
   <trkpt lat="27.6740730" lon="75.4396770">
    <ele>494</ele>
   </trkpt>
   <trkpt lat="27.6746530" lon="75.4398950">
    <ele>497</ele>
   </trkpt>
   <trkpt lat="27.6748200" lon="75.4399580">
    <ele>497</ele>
   </trkpt>
   <trkpt lat="27.6750880" lon="75.4401150">
    <ele>496</ele>
   </trkpt>
   <trkpt lat="27.6759320" lon="75.4406939">
    <ele>494</ele>
   </trkpt>
   <trkpt lat="27.6761350" lon="75.4408720">
    <ele>493</ele>
   </trkpt>
   <trkpt lat="27.6763660" lon="75.4412290">
    <ele>490</ele>
   </trkpt>
   <trkpt lat="27.6780340" lon="75.4441960">
    <ele>484</ele>
   </trkpt>
   <trkpt lat="27.6785220" lon="75.4450880">
    <ele>481</ele>
   </trkpt>
   <trkpt lat="27.6786510" lon="75.4454010">
    <ele>482</ele>
   </trkpt>
   <trkpt lat="27.6789170" lon="75.4461190">
    <ele>483</ele>
   </trkpt>
   <trkpt lat="27.6790490" lon="75.4463150">
    <ele>481</ele>
   </trkpt>
   <trkpt lat="27.6794000" lon="75.4467350">
    <ele>478</ele>
   </trkpt>
   <trkpt lat="27.6797170" lon="75.4472640">
    <ele>480</ele>
   </trkpt>
   <trkpt lat="27.6801370" lon="75.4480940">
    <ele>485</ele>
   </trkpt>
   <trkpt lat="27.6804260" lon="75.4485350">
    <ele>489</ele>
   </trkpt>
   <trkpt lat="27.6810450" lon="75.4492450">
    <ele>489</ele>
   </trkpt>
   <trkpt lat="27.6813130" lon="75.4496360">
    <ele>491</ele>
   </trkpt>
   <trkpt lat="27.6813390" lon="75.4498220">
    <ele>485</ele>
   </trkpt>
   <trkpt lat="27.6812790" lon="75.4500830">
    <ele>483</ele>
   </trkpt>
   <trkpt lat="27.6809160" lon="75.4510380">
    <ele>480</ele>
   </trkpt>
   <trkpt lat="27.6809140" lon="75.4511969">
    <ele>479</ele>
   </trkpt>
   <trkpt lat="27.6809780" lon="75.4513510">
    <ele>481</ele>
   </trkpt>
   <trkpt lat="27.6817890" lon="75.4525110">
    <ele>482</ele>
   </trkpt>
   <trkpt lat="27.6822590" lon="75.4530800">
    <ele>480</ele>
   </trkpt>
   <trkpt lat="27.6832990" lon="75.4541210">
    <ele>488</ele>
   </trkpt>
   <trkpt lat="27.6834030" lon="75.4543170">
    <ele>488</ele>
   </trkpt>
   <trkpt lat="27.6834510" lon="75.4546010">
    <ele>487</ele>
   </trkpt>
   <trkpt lat="27.6833820" lon="75.4557310">
    <ele>481</ele>
   </trkpt>
   <trkpt lat="27.6834120" lon="75.4559600">
    <ele>479</ele>
   </trkpt>
   <trkpt lat="27.6835270" lon="75.4562080">
    <ele>476</ele>
   </trkpt>
   <trkpt lat="27.6838070" lon="75.4566020">
    <ele>476</ele>
   </trkpt>
   <trkpt lat="27.6841810" lon="75.4569620">
    <ele>476</ele>
   </trkpt>
   <trkpt lat="27.6857500" lon="75.4582439">
    <ele>474</ele>
   </trkpt>
   <trkpt lat="27.6877170" lon="75.4599140">
    <ele>476</ele>
   </trkpt>
   <trkpt lat="27.6880590" lon="75.4602950">
    <ele>475</ele>
   </trkpt>
   <trkpt lat="27.6882780" lon="75.4604250">
    <ele>477</ele>
   </trkpt>
   <trkpt lat="27.6896970" lon="75.4613229">
    <ele>471</ele>
   </trkpt>
   <trkpt lat="27.6899790" lon="75.4616360">
    <ele>473</ele>
   </trkpt>
   <trkpt lat="27.6901820" lon="75.4618990">
    <ele>473</ele>
   </trkpt>
   <trkpt lat="27.6906760" lon="75.4628360">
    <ele>466</ele>
   </trkpt>
   <trkpt lat="27.6909170" lon="75.4635070">
    <ele>468</ele>
   </trkpt>
   <trkpt lat="27.6914180" lon="75.4650570">
    <ele>466</ele>
   </trkpt>
   <trkpt lat="27.6917000" lon="75.4655600">
    <ele>470</ele>
   </trkpt>
   <trkpt lat="27.6918960" lon="75.4658470">
    <ele>472</ele>
   </trkpt>
   <trkpt lat="27.6924620" lon="75.4663740">
    <ele>469</ele>
   </trkpt>
   <trkpt lat="27.6928230" lon="75.4665600">
    <ele>470</ele>
   </trkpt>
   <trkpt lat="27.6938760" lon="75.4671650">
    <ele>474</ele>
   </trkpt>
   <trkpt lat="27.6949090" lon="75.4678230">
    <ele>473</ele>
   </trkpt>
   <trkpt lat="27.6958240" lon="75.4684750">
    <ele>470</ele>
   </trkpt>
   <trkpt lat="27.6966140" lon="75.4689990">
    <ele>459</ele>
   </trkpt>
   <trkpt lat="27.6972960" lon="75.4692600">
    <ele>456</ele>
   </trkpt>
   <trkpt lat="27.6977690" lon="75.4694300">
    <ele>460</ele>
   </trkpt>
   <trkpt lat="27.6980840" lon="75.4696330">
    <ele>460</ele>
   </trkpt>
   <trkpt lat="27.6986680" lon="75.4700930">
    <ele>460</ele>
   </trkpt>
   <trkpt lat="27.6988780" lon="75.4703200">
    <ele>460</ele>
   </trkpt>
   <trkpt lat="27.6991460" lon="75.4707500">
    <ele>461</ele>
   </trkpt>
   <trkpt lat="27.6995160" lon="75.4713450">
    <ele>457</ele>
   </trkpt>
   <trkpt lat="27.6996870" lon="75.4715300">
    <ele>456</ele>
   </trkpt>
   <trkpt lat="27.6998790" lon="75.4716370">
    <ele>454</ele>
   </trkpt>
   <trkpt lat="27.7000380" lon="75.4716640">
    <ele>455</ele>
   </trkpt>
   <trkpt lat="27.7002440" lon="75.4716140">
    <ele>456</ele>
   </trkpt>
   <trkpt lat="27.7006200" lon="75.4715329">
    <ele>461</ele>
   </trkpt>
   <trkpt lat="27.7007610" lon="75.4715570">
    <ele>462</ele>
   </trkpt>
   <trkpt lat="27.7008980" lon="75.4716190">
    <ele>462</ele>
   </trkpt>
   <trkpt lat="27.7011910" lon="75.4718490">
    <ele>463</ele>
   </trkpt>
   <trkpt lat="27.7013370" lon="75.4719090">
    <ele>464</ele>
   </trkpt>
   <trkpt lat="27.7016280" lon="75.4719170">
    <ele>462</ele>
   </trkpt>
   <trkpt lat="27.7019030" lon="75.4718670">
    <ele>461</ele>
   </trkpt>
   <trkpt lat="27.7020180" lon="75.4718040">
    <ele>458</ele>
   </trkpt>
   <trkpt lat="27.7023900" lon="75.4715280">
    <ele>455</ele>
   </trkpt>
   <trkpt lat="27.7025240" lon="75.4714650">
    <ele>455</ele>
   </trkpt>
   <trkpt lat="27.7028040" lon="75.4714340">
    <ele>455</ele>
   </trkpt>
   <trkpt lat="27.7035870" lon="75.4714700">
    <ele>455</ele>
   </trkpt>
   <trkpt lat="27.7038460" lon="75.4714730">
    <ele>452</ele>
   </trkpt>
   <trkpt lat="27.7039840" lon="75.4716040">
    <ele>451</ele>
   </trkpt>
   <trkpt lat="27.7044350" lon="75.4726190">
    <ele>450</ele>
   </trkpt>
   <trkpt lat="27.7045550" lon="75.4727360">
    <ele>450</ele>
   </trkpt>
   <trkpt lat="27.7048130" lon="75.4728850">
    <ele>449</ele>
   </trkpt>
   <trkpt lat="27.7066520" lon="75.4738190">
    <ele>448</ele>
   </trkpt>
   <trkpt lat="27.7078950" lon="75.4743930">
    <ele>449</ele>
   </trkpt>
   <trkpt lat="27.7082260" lon="75.4745400">
    <ele>448</ele>
   </trkpt>
  </trkseg>
 </trk>
</gpx>
