<?xml version="1.0" encoding="UTF-8"?>
<kml xmlns="http://earth.google.com/kml/2.1">
 <Folder>
  <name>SHEKHWATI ULTRA 55k Route</name>
  <Placemark>
   <name>Track</name>
   <type>running</type>
   <COROS link="https://www.coros.com">
    <coros_edit>1</coros_edit>
   </COROS>
   <Style>
    <LineStyle>
     <color>FF0000FF</color>
     <width>3.0</width>
    </LineStyle>
   </Style>
   <LineString>
    <extrude>false</extrude>
    <tessellate>true</tessellate>
    <altitudeMode>clampToGround</altitudeMode>
    <coordinates>75.4744669,27.7080605,449 75.4743930,27.7078950,449 75.4738190,27.7066520,448 75.4728850,27.7048130,449 75.4727360,27.7045550,450 75.4726190,27.7044350,450 75.4716040,27.7039840,451 75.4714730,27.7038460,452 75.4714700,27.7035870,455 75.4714340,27.7028040,455 75.4714650,27.7025240,455 75.4715280,27.7023900,455 75.4718040,27.7020180,458 75.4718670,27.7019030,461 75.4719170,27.7016280,462 75.4719090,27.7013370,464 75.4718490,27.7011910,463 75.4716190,27.7008980,462 75.4715570,27.7007610,462 75.4715329,27.7006200,461 75.4716140,27.7002440,456 75.4716640,27.7000380,455 75.4716370,27.6998790,454 75.4715300,27.6996870,456 75.4713450,27.6995160,457 75.4707500,27.6991460,461 75.4703200,27.6988780,460 75.4700930,27.6986680,460 75.4696330,27.6980840,460 75.4694300,27.6977690,460 75.4692600,27.6972960,456 75.4689990,27.6966140,459 75.4684750,27.6958240,470 75.4678230,27.6949090,473 75.4671650,27.6938760,474 75.4665600,27.6928230,470 75.4663740,27.6924620,469 75.4658470,27.6918960,472 75.4655600,27.6917000,470 75.4650570,27.6914180,466 75.4635070,27.6909170,468 75.4628360,27.6906760,466 75.4618990,27.6901820,473 75.4616360,27.6899790,473 75.4613229,27.6896970,471 75.4604250,27.6882780,477 75.4602950,27.6880590,475 75.4599140,27.6877170,476 75.4582439,27.6857500,474 75.4569620,27.6841810,476 75.4566020,27.6838070,476 75.4566020,27.6838070,476 75.4566020,27.6838070,476 75.4566020,27.6838070,476 75.4562080,27.6835270,476 75.4559600,27.6834120,479 75.4557310,27.6833820,481 75.4546010,27.6834510,487 75.4543170,27.6834030,488 75.4541210,27.6832990,488 75.4530800,27.6822590,480 75.4525110,27.6817890,482 75.4520860,27.6814920,481 75.4514480,27.6810460,479 75.4513510,27.6809780,481 75.4511969,27.6809140,479 75.4510380,27.6809160,480 75.4500830,27.6812790,483 75.4498220,27.6813390,485 75.4496360,27.6813130,491 75.4492450,27.6810450,489 75.4485350,27.6804260,489 75.4480940,27.6801370,485 75.4475350,27.6798540,483 75.4472640,27.6797170,480 75.4468500,27.6794690,479 75.4467350,27.6794000,478 75.4463150,27.6790490,481 75.4461190,27.6789170,483 75.4454010,27.6786510,482 75.4450880,27.6785220,481 75.4441960,27.6780340,484 75.4412290,27.6763660,490 75.4408720,27.6761350,493 75.4406939,27.6759320,494 75.4401150,27.6750880,496 75.4399580,27.6748200,497 75.4393450,27.6731890,496 75.4385960,27.6718670,495 75.4382150,27.6712180,498 75.4381120,27.6710910,497 75.4374440,27.6705800,495 75.4362210,27.6696960,499 75.4361100,27.6695840,500 75.4353530,27.6683310,503 75.4343150,27.6666090,504 75.4335110,27.6653270,505 75.4333730,27.6651600,503 75.4327050,27.6646960,501 75.4314080,27.6637780,509 75.4309750,27.6634960,510 75.4300279,27.6628800,507 75.4276340,27.6616330,505 75.4274170,27.6614760,505 75.4272820,27.6613420,505 75.4271620,27.6611960,505 75.4266449,27.6603080,509 75.4263810,27.6598530,509 75.4256720,27.6583350,510 75.4251040,27.6571320,512 75.4250110,27.6569640,512 75.4249530,27.6568610,511 75.4249150,27.6568110,511 75.4248500,27.6567280,511 75.4247060,27.6565880,512 75.4246270,27.6565250,512 75.4244310,27.6563690,512 75.4235820,27.6556940,517 75.4227440,27.6550330,524 75.4221440,27.6545320,524 75.4214100,27.6539200,519 75.4206510,27.6533130,519 75.4201830,27.6529440,521 75.4200730,27.6528460,520 75.4200070,27.6527690,521 75.4199570,27.6526820,521 75.4199299,27.6526020,520 75.4198870,27.6523380,521 75.4198030,27.6518240,524 75.4196850,27.6514490,521 75.4194710,27.6510700,518 75.4194160,27.6510140,519 75.4193480,27.6509850,519 75.4192750,27.6509680,519 75.4189770,27.6509280,520 75.4188150,27.6508870,520 75.4186930,27.6508340,520 75.4185810,27.6507610,520 75.4181640,27.6504450,524 75.4177760,27.6501080,525 75.4174309,27.6497820,523 75.4170980,27.6495290,521 75.4164420,27.6490540,523 75.4160140,27.6487210,522 75.4159060,27.6486280,521 75.4158290,27.6485270,523 75.4154310,27.6478050,523 75.4152840,27.6474760,526 75.4152270,27.6473960,526 75.4150250,27.6472080,527 75.4149489,27.6471670,528 75.4148570,27.6471430,528 75.4147360,27.6471300,528 75.4142959,27.6470880,528 75.4141590,27.6470620,528 75.4140130,27.6470280,530 75.4134790,27.6468850,532 75.4130640,27.6467750,531 75.4129310,27.6467540,531 75.4124810,27.6467240,532 75.4123770,27.6466960,532 75.4122900,27.6466580,532 75.4122110,27.6466070,532 75.4120020,27.6464320,531 75.4118950,27.6463250,531 75.4117940,27.6462230,530 75.4113140,27.6456520,536 75.4112540,27.6455660,536 75.4111999,27.6454720,536 75.4107350,27.6441900,537 75.4106860,27.6440710,537 75.4106140,27.6439530,539 75.4105180,27.6438370,540 75.4102210,27.6435660,543 75.4097610,27.6431950,543 75.4096520,27.6430790,542 75.4095940,27.6429920,543 75.4095460,27.6428980,543 75.4093130,27.6422960,546 75.4091630,27.6420460,547 75.4089480,27.6417740,546 75.4087720,27.6416290,545 75.4086480,27.6415340,544 75.4085690,27.6414270,545 75.4085060,27.6412710,543 75.4085290,27.6411320,542 75.4086360,27.6409700,540 75.4087040,27.6408290,540 75.4087270,27.6406920,540 75.4086810,27.6405310,540 75.4085070,27.6402320,539 75.4084060,27.6399060,539 75.4083680,27.6394900,545 75.4082510,27.6392610,550 75.4081320,27.6388670,552 75.4080490,27.6386320,555 75.4080460,27.6385610,555 75.4080180,27.6379570,556 75.4080360,27.6372640,552 75.4080050,27.6370230,553 75.4078590,27.6366130,553 75.4076440,27.6360110,553 75.4076210,27.6359450,553 75.4076020,27.6357700,554 75.4076610,27.6355550,554 75.4076610,27.6354480,555 75.4076040,27.6352890,555 75.4072520,27.6347540,557 75.4071050,27.6345150,559 75.4069950,27.6343340,559 75.4066660,27.6339650,558 75.4062189,27.6336310,554 75.4061360,27.6335590,554 75.4060040,27.6334150,553 75.4056240,27.6330010,558 75.4055390,27.6329130,558 75.4054920,27.6328350,560 75.4054720,27.6327610,560 75.4054214,27.6327986,560 75.4054210,27.6327970,560 75.4054720,27.6327610,560 75.4053980,27.6325150,562 75.4053820,27.6323870,563 75.4053950,27.6323140,563 75.4054190,27.6322260,563 75.4054309,27.6321490,563 75.4054260,27.6320590,564 75.4053250,27.6315900,564 75.4052230,27.6313090,563 75.4051710,27.6310920,562 75.4050870,27.6309390,562 75.4050530,27.6308840,562 75.4050680,27.6308190,562 75.4054290,27.6303180,564 75.4054790,27.6302230,564 75.4054710,27.6301530,565 75.4054309,27.6300880,565 75.4052180,27.6298810,565 75.4048490,27.6293610,567 75.4046510,27.6289190,566 75.4045730,27.6288270,566 75.4045110,27.6286960,566 75.4045070,27.6286240,567 75.4045340,27.6284330,567 75.4045000,27.6283740,567 75.4043260,27.6282980,567 75.4042670,27.6282630,567 75.4040830,27.6281540,568 75.4039890,27.6280650,568 75.4039220,27.6279900,569 75.4038630,27.6279460,569 75.4038030,27.6279190,568 75.4035250,27.6278200,567 75.4034730,27.6277960,567 75.4034300,27.6277730,565 75.4033890,27.6277450,565 75.4031660,27.6274810,566 75.4030870,27.6274550,564 75.4030240,27.6274460,564 75.4029460,27.6274610,563 75.4025520,27.6276490,562 75.4024580,27.6276900,562 75.4023770,27.6277880,561 75.4024100,27.6279340,561 75.4024230,27.6280010,561 75.4023780,27.6280850,561 75.4023050,27.6281550,561 75.4022169,27.6282480,561 75.4021690,27.6282830,561 75.4021030,27.6283230,561 75.4020380,27.6283330,562 75.4013910,27.6282670,567 75.4012980,27.6282640,567 75.4012190,27.6282890,568 75.4010980,27.6283770,568 75.4010700,27.6284350,568 75.4010290,27.6286370,571 75.4009930,27.6288940,571 75.4009430,27.6290380,571 75.4008020,27.6292100,574 75.4006220,27.6294950,575 75.4005720,27.6295460,575 75.4005100,27.6295880,574 75.4003400,27.6296620,573 75.4003398,27.6296620,573 75.4002840,27.6296870,573 75.4002120,27.6297250,573 75.3998950,27.6298940,571 75.3995630,27.6300350,568 75.3992770,27.6301330,567 75.3981560,27.6301870,567 75.3979640,27.6302110,567 75.3978750,27.6302510,567 75.3977910,27.6303830,566 75.3976200,27.6305750,566 75.3969870,27.6308300,570 75.3969390,27.6309080,570 75.3969480,27.6310210,570 75.3972129,27.6317140,571 75.3972960,27.6320670,570 75.3973010,27.6322760,570 75.3972780,27.6324280,571 75.3970530,27.6328620,573 75.3969670,27.6331040,573 75.3969150,27.6333200,574 75.3968630,27.6335540,577 75.3965750,27.6347670,586 75.3965140,27.6352690,586 75.3964730,27.6357630,589 75.3964570,27.6358820,590 75.3964520,27.6359860,592 75.3965000,27.6362650,597 75.3965510,27.6365440,599 75.3965480,27.6366020,602 75.3965350,27.6366710,602 75.3964640,27.6367920,604 75.3964370,27.6369110,606 75.3964820,27.6372270,610 75.3964770,27.6374290,611 75.3964710,27.6374700,613 75.3964510,27.6375130,613 75.3964200,27.6375390,611 75.3963820,27.6375620,611 75.3962990,27.6375950,611 75.3961800,27.6376690,615 75.3961650,27.6376960,615 75.3961630,27.6377340,615 75.3961780,27.6377550,615 75.3962100,27.6377720,618 75.3964090,27.6377870,617 75.3964280,27.6378040,618 75.3964380,27.6378290,618 75.3964310,27.6378650,618 75.3964030,27.6378960,617 75.3962800,27.6379210,619 75.3962020,27.6379290,620 75.3961570,27.6379540,620 75.3961460,27.6379820,620 75.3961580,27.6380160,620 75.3962140,27.6380520,620 75.3963040,27.6380550,619 75.3964760,27.6380640,620 75.3965140,27.6380770,622 75.3965420,27.6381020,622 75.3965500,27.6381600,622 75.3965210,27.6381890,622 75.3964960,27.6381990,622 75.3964190,27.6382020,622 75.3963620,27.6382090,622 75.3963250,27.6382150,622 75.3962990,27.6382420,625 75.3962860,27.6382720,625 75.3963100,27.6383100,625 75.3964060,27.6383500,625 75.3965550,27.6383890,627 75.3966480,27.6384120,625 75.3966770,27.6384420,625 75.3966850,27.6384800,625 75.3966850,27.6385200,625 75.3966420,27.6385580,626 75.3965920,27.6385650,629 75.3965039,27.6385410,629 75.3964160,27.6385260,631 75.3963610,27.6385310,631 75.3963210,27.6385580,631 75.3963190,27.6385960,631 75.3963290,27.6386360,631 75.3964190,27.6387460,633 75.3965740,27.6388730,631 75.3967260,27.6389390,628 75.3967530,27.6389550,628 75.3967739,27.6389720,628 75.3967890,27.6390090,628 75.3967980,27.6390510,628 75.3967520,27.6391940,628 75.3967100,27.6392520,628 75.3966850,27.6392660,628 75.3966610,27.6392650,628 75.3966389,27.6392600,628 75.3966180,27.6392450,628 75.3965680,27.6391360,631 75.3965200,27.6390620,632 75.3958540,27.6385380,637 75.3957150,27.6384490,633 75.3956760,27.6384520,633 75.3956380,27.6384600,633 75.3956140,27.6384780,633 75.3956030,27.6384980,633 75.3956070,27.6385430,637 75.3956220,27.6385870,637 75.3958490,27.6388820,641 75.3961160,27.6391850,638 75.3961250,27.6392270,638 75.3961200,27.6392370,638 75.3961099,27.6392570,638 75.3960880,27.6392700,638 75.3960510,27.6392710,641 75.3959470,27.6392290,641 75.3958650,27.6391860,643 75.3958120,27.6391850,643 75.3957940,27.6391940,643 75.3957630,27.6392300,643 75.3957490,27.6392760,643 75.3957340,27.6393390,645 75.3957150,27.6393800,645 75.3956740,27.6393970,645 75.3956310,27.6393960,645 75.3955850,27.6393700,645 75.3953490,27.6391970,653 75.3952490,27.6391740,653 75.3951940,27.6392060,659 75.3952050,27.6392710,659 75.3953260,27.6394200,655 75.3953370,27.6394530,656 75.3953570,27.6395140,656 75.3953380,27.6395730,656 75.3952950,27.6395960,656 75.3952220,27.6395990,656 75.3951870,27.6395830,663 75.3951640,27.6395350,663 75.3951050,27.6393910,661 75.3950210,27.6392870,669 75.3944549,27.6389170,673 75.3936480,27.6383380,677 75.3935220,27.6382440,677 75.3934529,27.6382400,684 75.3934330,27.6382660,684 75.3934620,27.6383680,684 75.3939460,27.6389080,688 75.3941220,27.6390650,689 75.3941610,27.6391070,689 75.3941650,27.6391300,689 75.3941550,27.6391580,694 75.3941310,27.6391710,694 75.3941070,27.6391780,694 75.3940430,27.6391790,694 75.3939989,27.6391700,698 75.3939709,27.6391560,698 75.3937119,27.6389510,691 75.3936690,27.6389160,693 75.3936270,27.6389020,693 75.3935500,27.6388970,693 75.3934890,27.6389130,693 75.3934050,27.6389430,693 75.3933480,27.6389600,693 75.3933170,27.6389860,690 75.3932920,27.6390260,690 75.3932780,27.6390610,690 75.3932760,27.6390940,690 75.3932750,27.6391440,691 75.3932740,27.6391850,691 75.3932530,27.6392060,691 75.3932130,27.6392190,691 75.3931680,27.6392100,691 75.3931470,27.6391910,684 75.3931240,27.6391530,684 75.3931300,27.6390080,683 75.3930840,27.6388790,683 75.3930660,27.6388500,683 75.3930420,27.6388310,683 75.3927700,27.6386580,679 75.3926700,27.6386140,679 75.3926170,27.6385960,672 75.3925530,27.6385750,672 75.3924900,27.6385710,672 75.3923390,27.6385640,670 75.3917370,27.6385900,671 75.3916320,27.6386060,671 75.3916020,27.6386220,672 75.3915920,27.6386290,672 75.3915770,27.6386390,672 75.3915610,27.6386530,672 75.3915449,27.6386780,668 75.3915410,27.6387020,668 75.3915270,27.6387430,668 75.3915169,27.6387580,668 75.3915020,27.6387760,668 75.3914630,27.6387980,668 75.3913890,27.6388220,669 75.3913180,27.6388360,669 75.3912350,27.6388410,671 75.3911620,27.6388570,671 75.3910990,27.6388960,673 75.3910320,27.6389390,673 75.3909590,27.6390190,673 75.3908510,27.6391240,674 75.3907340,27.6392090,680 75.3906740,27.6392320,680 75.3906120,27.6392340,680 75.3905319,27.6392060,680 75.3903200,27.6390450,677 75.3901020,27.6388880,674 75.3900309,27.6388460,674 75.3899740,27.6388260,672 75.3899030,27.6388190,672 75.3898300,27.6388200,672 75.3897540,27.6388460,674 75.3896380,27.6388970,673 75.3893830,27.6389970,673 75.3892320,27.6390680,673 75.3891500,27.6390980,674 75.3890710,27.6391180,674 75.3889980,27.6391300,674 75.3889280,27.6391390,675 75.3888659,27.6391450,676 75.3886750,27.6391550,678 75.3886200,27.6391510,678 75.3885700,27.6391380,678 75.3883510,27.6390490,679 75.3882870,27.6390280,679 75.3882120,27.6390130,679 75.3881270,27.6390050,680 75.3880250,27.6390010,680 75.3879520,27.6390060,680 75.3878800,27.6390290,680 75.3877780,27.6390850,682 75.3876700,27.6391520,682 75.3875490,27.6392290,683 75.3874060,27.6393360,683 75.3872510,27.6394480,683 75.3871480,27.6395170,684 75.3870560,27.6395600,684 75.3869750,27.6395860,685 75.3868360,27.6396100,687 75.3866330,27.6396480,691 75.3865600,27.6396480,691 75.3864910,27.6396290,691 75.3864470,27.6395900,694 75.3863980,27.6395230,692 75.3863550,27.6394420,692 75.3862950,27.6393100,694 75.3862429,27.6391960,692 75.3862150,27.6391530,692 75.3861850,27.6391150,691 75.3861460,27.6390740,691 75.3860950,27.6390410,693 75.3859950,27.6389890,693 75.3859310,27.6389610,693 75.3858540,27.6389300,693 75.3857950,27.6389030,693 75.3857360,27.6388710,693 75.3856660,27.6388250,690 75.3856069,27.6387580,689 75.3855390,27.6386570,688 75.3853610,27.6383990,688 75.3853139,27.6383280,689 75.3852790,27.6382660,689 75.3852610,27.6382100,689 75.3852500,27.6381260,689 75.3852239,27.6379730,690 75.3851900,27.6378500,691 75.3851509,27.6377430,693 75.3849740,27.6373790,696 75.3849040,27.6372370,695 75.3848170,27.6370620,696 75.3846010,27.6364900,700 75.3845520,27.6363920,700 75.3844890,27.6362850,700 75.3844180,27.6361870,703 75.3843500,27.6360990,700 75.3840570,27.6357880,700 75.3839760,27.6357220,703 75.3839110,27.6356750,703 75.3837410,27.6355510,705 75.3836260,27.6354690,707 75.3835290,27.6353460,706 75.3832410,27.6348240,712 75.3828760,27.6341090,722 75.3827900,27.6339470,724 75.3827510,27.6338200,724 75.3827370,27.6337050,724 75.3827170,27.6335560,725 75.3826790,27.6334630,724 75.3826040,27.6333900,724 75.3823580,27.6332290,721 75.3822530,27.6331610,717 75.3821700,27.6330980,718 75.3820990,27.6330350,712 75.3820450,27.6329850,712 75.3819930,27.6329660,712 75.3819369,27.6329600,712 75.3818180,27.6329710,715 75.3817229,27.6329670,715 75.3816640,27.6329530,715 75.3815850,27.6329150,720 75.3807930,27.6322710,711 75.3807260,27.6322210,711 75.3806860,27.6321730,711 75.3806710,27.6321260,703 75.3806740,27.6320860,703 75.3807120,27.6320670,703 75.3807570,27.6320670,703 75.3808010,27.6320780,703 75.3808550,27.6320980,697 75.3809110,27.6321270,697 75.3810290,27.6321860,697 75.3815400,27.6325370,695 75.3815790,27.6325560,695 75.3816060,27.6325620,695 75.3816370,27.6325590,695 75.3816600,27.6325480,695 75.3816890,27.6325310,693 75.3817160,27.6325010,693 75.3817330,27.6324680,693 75.3817440,27.6324220,688 75.3817420,27.6323680,688 75.3817300,27.6323140,688 75.3816870,27.6322600,683 75.3816410,27.6322280,685 75.3815709,27.6321910,685 75.3814359,27.6321360,688 75.3813710,27.6320940,683 75.3813340,27.6320630,683 75.3812729,27.6320060,687 75.3810990,27.6318360,684 75.3810520,27.6318080,677 75.3809960,27.6317790,677 75.3808680,27.6317250,681 75.3806680,27.6316260,676 75.3806230,27.6316020,681 75.3805830,27.6315740,681 75.3805520,27.6315470,681 75.3805210,27.6315190,672 75.3804740,27.6314670,672 75.3804290,27.6314260,677 75.3803720,27.6313820,677 75.3801979,27.6312570,676 75.3801280,27.6312050,667 75.3800860,27.6311690,673 75.3800430,27.6311310,673 75.3798170,27.6309390,671 75.3797740,27.6309100,659 75.3797220,27.6308840,662 75.3796450,27.6308540,662 75.3791750,27.6307280,651 75.3791370,27.6307130,651 75.3791100,27.6306900,651 75.3790960,27.6306580,651 75.3791120,27.6306210,651 75.3791460,27.6306090,642 75.3791860,27.6306090,642 75.3795559,27.6306760,654 75.3798520,27.6307430,647 75.3799350,27.6307700,659 75.3800030,27.6307960,653 75.3800700,27.6308230,653 75.3802900,27.6309300,651 75.3806210,27.6310590,647 75.3806730,27.6310670,643 75.3807000,27.6310670,643 75.3807470,27.6310590,643 75.3807860,27.6310430,643 75.3807999,27.6310170,643 75.3808010,27.6309840,643 75.3807770,27.6309430,643 75.3807400,27.6309100,637 75.3805600,27.6307610,633 75.3805180,27.6307400,633 75.3804460,27.6307160,636 75.3802840,27.6306690,639 75.3802360,27.6306440,639 75.3801870,27.6306100,632 75.3800830,27.6305150,635 75.3800140,27.6304560,628 75.3799590,27.6304180,628 75.3799280,27.6304000,631 75.3798879,27.6303840,631 75.3798100,27.6303600,631 75.3797140,27.6303380,633 75.3796360,27.6303210,633 75.3793610,27.6302700,626 75.3791710,27.6302350,626 75.3791339,27.6302150,626 75.3791240,27.6301900,626 75.3791220,27.6301670,626 75.3791400,27.6301410,619 75.3791770,27.6301240,619 75.3799219,27.6301220,618 75.3799800,27.6301180,616 75.3800380,27.6301090,616 75.3800739,27.6300860,616 75.3800880,27.6300620,616 75.3800940,27.6300210,616 75.3800790,27.6299890,611 75.3800490,27.6299590,611 75.3800100,27.6299430,611 75.3799650,27.6299320,611 75.3795300,27.6298720,612 75.3786680,27.6297900,606 75.3786340,27.6297770,606 75.3786240,27.6297570,606 75.3786230,27.6297310,606 75.3786410,27.6296980,599 75.3786650,27.6296790,599 75.3787090,27.6296670,599 75.3787660,27.6296590,599 75.3788320,27.6296560,599 75.3788910,27.6296490,599 75.3789420,27.6296380,599 75.3792560,27.6295440,594 75.3793230,27.6295130,595 75.3793640,27.6294900,595 75.3793820,27.6294720,595 75.3793910,27.6294530,595 75.3793890,27.6294260,595 75.3793650,27.6293960,590 75.3793190,27.6293820,590 75.3792400,27.6293750,589 75.3791580,27.6293780,589 75.3791010,27.6293870,589 75.3790380,27.6294080,593 75.3788930,27.6294630,593 75.3788480,27.6294680,593 75.3788170,27.6294590,593 75.3787950,27.6294420,593 75.3787810,27.6294120,593 75.3787820,27.6293750,588 75.3787940,27.6293470,588 75.3789240,27.6291490,584 75.3789369,27.6291090,584 75.3789380,27.6290900,580 75.3789340,27.6290710,580 75.3789150,27.6290530,580 75.3788880,27.6290390,580 75.3788620,27.6290350,580 75.3788340,27.6290450,580 75.3788060,27.6290660,580 75.3786990,27.6292010,584 75.3786700,27.6292320,584 75.3786390,27.6292480,588 75.3786040,27.6292540,588 75.3785590,27.6292510,589 75.3785240,27.6292370,585 75.3785020,27.6292150,585 75.3784970,27.6291940,585 75.3785010,27.6291670,585 75.3785320,27.6291260,585 75.3786460,27.6290010,580 75.3786669,27.6289560,580 75.3786750,27.6289330,576 75.3786730,27.6289090,576 75.3786540,27.6288770,576 75.3786140,27.6288470,576 75.3785040,27.6287900,577 75.3783100,27.6286980,574 75.3778040,27.6284590,567 75.3776710,27.6283930,567 75.3775650,27.6283410,567 75.3774830,27.6282960,563 75.3773210,27.6282060,564 75.3772350,27.6281600,561 75.3771320,27.6281180,562 75.3766349,27.6279430,561 75.3763890,27.6278500,559 75.3759410,27.6276810,557 75.3758200,27.6276350,556 75.3756440,27.6275660,554 75.3749969,27.6273110,552 75.3744040,27.6270670,551 75.3741630,27.6269690,552 75.3740960,27.6269370,552 75.3740450,27.6269090,552 75.3739960,27.6268780,552 75.3739490,27.6268410,552 75.3738580,27.6267700,552 75.3735720,27.6265310,555 75.3733660,27.6263780,555 75.3733080,27.6263390,553 75.3732590,27.6263120,553 75.3731959,27.6262860,554 75.3728790,27.6261830,554 75.3723080,27.6259970,552 75.3719629,27.6259070,550 75.3719040,27.6258930,549 75.3718460,27.6258830,548 75.3717620,27.6258690,548 75.3716309,27.6258510,548 75.3715420,27.6258390,548 75.3714450,27.6258130,550 75.3713650,27.6257760,550 75.3712870,27.6257400,549 75.3712170,27.6257030,549 75.3709820,27.6255550,551 75.3709110,27.6255110,551 75.3708240,27.6254520,556 75.3707500,27.6254070,551 75.3704319,27.6252400,554 75.3703700,27.6252120,554 75.3703120,27.6251900,556 75.3702480,27.6251700,556 75.3693050,27.6248920,555 75.3692300,27.6248830,553 75.3691570,27.6248850,553 75.3690770,27.6248990,550 75.3689920,27.6249230,550 75.3689080,27.6249640,548 75.3686980,27.6251210,547 75.3686070,27.6251800,548 75.3685409,27.6252140,548 75.3684860,27.6252360,548 75.3684190,27.6252490,547 75.3682790,27.6252700,547 75.3681510,27.6252870,547 75.3680170,27.6253000,551 75.3679580,27.6253170,551 75.3679020,27.6253360,552 75.3676690,27.6254190,552 75.3676230,27.6254330,552 75.3675800,27.6254410,553 75.3675200,27.6254470,555 75.3671610,27.6254730,554 75.3670960,27.6254790,554 75.3670180,27.6254870,554 75.3667940,27.6255390,554 75.3661690,27.6256840,549 75.3660680,27.6256950,549 75.3659560,27.6256960,548 75.3658350,27.6256790,550 75.3656940,27.6256430,553 75.3655069,27.6255790,555 75.3653500,27.6255050,560 75.3652750,27.6254600,560 75.3652250,27.6254120,556 75.3651690,27.6253420,560 75.3650280,27.6251320,551 75.3649779,27.6250800,553 75.3649200,27.6250290,553 75.3648670,27.6249890,553 75.3648089,27.6249540,549 75.3647230,27.6249080,549 75.3646560,27.6248750,550 75.3645729,27.6248420,550 75.3644970,27.6248150,545 75.3644190,27.6247910,545 75.3642090,27.6247240,545 75.3641910,27.6247180,545 75.3637840,27.6245800,544 75.3635910,27.6245140,541 75.3635220,27.6244960,541 75.3634530,27.6244910,542 75.3633650,27.6244920,542 75.3631970,27.6244960,543 75.3622450,27.6244820,543 75.3621510,27.6244870,543 75.3620460,27.6244940,543 75.3618360,27.6245160,543 75.3617520,27.6245140,543 75.3616690,27.6244990,546 75.3615300,27.6244530,550 75.3613980,27.6243910,553 75.3612060,27.6242940,550 75.3611080,27.6242380,550 75.3610130,27.6241710,546 75.3609240,27.6240980,546 75.3608340,27.6240120,546 75.3607430,27.6239170,543 75.3605510,27.6237340,542 75.3605110,27.6237070,544 75.3604610,27.6236780,544 75.3601380,27.6235390,542 75.3591700,27.6231730,532 75.3590350,27.6231170,530 75.3588810,27.6230280,529 75.3587809,27.6229480,528 75.3586970,27.6228490,527 75.3583850,27.6223220,526 75.3582760,27.6221620,524 75.3581619,27.6220720,522 75.3580620,27.6220120,522 75.3579180,27.6219370,521 75.3577800,27.6218610,522 75.3575470,27.6217160,523 75.3573270,27.6215550,524 75.3570470,27.6214330,526 75.3568780,27.6213770,528 75.3567280,27.6213300,526 75.3565600,27.6212630,527 75.3562830,27.6211250,526 75.3560000,27.6209810,526 75.3557710,27.6208510,527 75.3549670,27.6202590,522 75.3548250,27.6201760,522 75.3547640,27.6201630,522 75.3539980,27.6201240,518 75.3532400,27.6201420,521 75.3527310,27.6201530,523 75.3522740,27.6201390,523 75.3519800,27.6200980,523 75.3518790,27.6200760,523 75.3516870,27.6200320,524 75.3514370,27.6199620,525 75.3513490,27.6199330,525 75.3512350,27.6198700,527 75.3510290,27.6197500,527 75.3504370,27.6193940,531 75.3499620,27.6191160,533 75.3494820,27.6188400,535 75.3493310,27.6187810,537 75.3492390,27.6187510,537 75.3491500,27.6187000,536 75.3489500,27.6185610,533 75.3488069,27.6184800,533 75.3486810,27.6184240,529 75.3485090,27.6183520,530 75.3482250,27.6182150,528 75.3480320,27.6181360,526 75.3477430,27.6180150,528 75.3474190,27.6178520,527 75.3471770,27.6177130,524 75.3466430,27.6174910,524 75.3461080,27.6172580,531 75.3460020,27.6172320,531 75.3458740,27.6171780,530 75.3457350,27.6171180,532 75.3456520,27.6170600,528 75.3452700,27.6167480,525 75.3450170,27.6165520,523 75.3448780,27.6164590,523 75.3447300,27.6163700,524 75.3445969,27.6162930,522 75.3443560,27.6161050,523 75.3441460,27.6159290,522 75.3436790,27.6155700,523 75.3435460,27.6154960,521 75.3433470,27.6154060,522 75.3431669,27.6153220,519 75.3430020,27.6152260,517 75.3429330,27.6151900,517 75.3428680,27.6151590,517 75.3428010,27.6151460,517 75.3426790,27.6151480,518 75.3425190,27.6151790,517 75.3422250,27.6152210,517 75.3420970,27.6152380,516 75.3420100,27.6152650,521 75.3418510,27.6153110,521 75.3418020,27.6153130,522 75.3417640,27.6153080,522 75.3416890,27.6152890,522 75.3416400,27.6152630,523 75.3415710,27.6152210,519 75.3413090,27.6150500,519 75.3410730,27.6148940,518 75.3409210,27.6147990,518 75.3408120,27.6147420,516 75.3407030,27.6146950,516 75.3406020,27.6146700,516 75.3405400,27.6146520,516 75.3404640,27.6146360,515 75.3403850,27.6146290,515 75.3403150,27.6146270,515 75.3401860,27.6146290,514 75.3401310,27.6146300,514 75.3400880,27.6146310,513 75.3399990,27.6146340,513 75.3398629,27.6146430,513 75.3397480,27.6146450,516 75.3395850,27.6146480,519 75.3393860,27.6146510,522 75.3393220,27.6146420,518 75.3392880,27.6146310,518 75.3392570,27.6146140,521 75.3389560,27.6144460,520 75.3388980,27.6144150,524 75.3386670,27.6142900,523 75.3386130,27.6142620,523 75.3385210,27.6142140,526 75.3383520,27.6141140,524 75.3382990,27.6140660,524 75.3381150,27.6138260,517 75.3380509,27.6137150,514 75.3380260,27.6136500,514 75.3380140,27.6135380,511 75.3379650,27.6131430,507 75.3378989,27.6128060,504 75.3378730,27.6127140,504 75.3378440,27.6126350,504 75.3378120,27.6125600,504 75.3377520,27.6124520,505 75.3376640,27.6122890,504 75.3375800,27.6121040,503 75.3374820,27.6118560,502 75.3374270,27.6117680,502 75.3373600,27.6117070,502 75.3372909,27.6116570,502 75.3371930,27.6116010,504 75.3369740,27.6114760,505 75.3367880,27.6113750,507 75.3366549,27.6112880,507 75.3360850,27.6107520,503 75.3360639,27.6107320,503 75.3360050,27.6106570,503 75.3359370,27.6105520,503 75.3358800,27.6104370,504 75.3358580,27.6103310,505 75.3358510,27.6103000,505 75.3358530,27.6102160,507 75.3358750,27.6100640,509 75.3359220,27.6099000,511 75.3360040,27.6096410,512 75.3360180,27.6096060,514 75.3360250,27.6095720,514 75.3360330,27.6095110,514 75.3360320,27.6094410,515 75.3360280,27.6094040,515 75.3360189,27.6093620,515 75.3359980,27.6093050,516 75.3359310,27.6091980,516 75.3358270,27.6090390,515 75.3356630,27.6088030,514 75.3353870,27.6084150,508 75.3352500,27.6082190,504 75.3351940,27.6081120,504 75.3351290,27.6079500,505 75.3351010,27.6077990,505 75.3350700,27.6075730,505 75.3350650,27.6074230,506 75.3350730,27.6073040,506 75.3350930,27.6072160,506 75.3351370,27.6070900,505 75.3351880,27.6069440,504 75.3352830,27.6066450,502 75.3353050,27.6065430,500 75.3353230,27.6063970,498 75.3353209,27.6062700,497 75.3353120,27.6061520,497 75.3352830,27.6060490,497 75.3352290,27.6059070,497 75.3351390,27.6057000,498 75.3350410,27.6054940,498 75.3348710,27.6051000,497 75.3346940,27.6046720,497 75.3345290,27.6042920,496 75.3343919,27.6039520,496 75.3342770,27.6036840,496 75.3341790,27.6034170,496 75.3341080,27.6032140,496 75.3340680,27.6030970,496 75.3340300,27.6029910,496 75.3339810,27.6028990,495 75.3339060,27.6027500,496 75.3338060,27.6025810,495 75.3337240,27.6024520,496 75.3336270,27.6022960,495 75.3335710,27.6022120,496 75.3335520,27.6021840,496 75.3328100,27.6011230,491 75.3325760,27.6007650,493 75.3323470,27.6004210,494 75.3319000,27.5997580,492 75.3317469,27.5995530,491 75.3316420,27.5994270,491 75.3315710,27.5993450,491 75.3314940,27.5992750,492 75.3313950,27.5991900,492 75.3312760,27.5990990,492 75.3312090,27.5990490,492 75.3311520,27.5990100,492 75.3310760,27.5989600,492 75.3310010,27.5989160,492 75.3309529,27.5988920,492 75.3308150,27.5988340,492 75.3306810,27.5987880,491 75.3304930,27.5987250,492 75.3302170,27.5986030,492 75.3299720,27.5984420,492 75.3298040,27.5983120,492 75.3295820,27.5981070,491 75.3294180,27.5979420,489 75.3292390,27.5977090,488 75.3289760,27.5973120,487 75.3287120,27.5968620,487 75.3284390,27.5963800,485 75.3282390,27.5960610,484 75.3279910,27.5956900,485 75.3278500,27.5955450,487 75.3277200,27.5954270,491 75.3275980,27.5953640,491 75.3273619,27.5952480,492 75.3272150,27.5951550,492 75.3271600,27.5951080,492 75.3270840,27.5950420,492 75.3270000,27.5949580,492 75.3267180,27.5946180,488 75.3266600,27.5945510,489 75.3265810,27.5944620,489 75.3264650,27.5943480,488 75.3263480,27.5942450,488 75.3259950,27.5939080,488 75.3258660,27.5937880,487 75.3256950,27.5936380,486 75.3255930,27.5935490,486 75.3253170,27.5932760,487 75.3247750,27.5927540,485 75.3245920,27.5926010,485 75.3243930,27.5924420,486 75.3238180,27.5920500,488 75.3236760,27.5919490,489 75.3236170,27.5919130,488 75.3235790,27.5918860,488 75.3232079,27.5917030,489 75.3231390,27.5916690,492 75.3230260,27.5916080,490 75.3228810,27.5914840,491 75.3227670,27.5913600,490 75.3226900,27.5912600,490 75.3226050,27.5910930,488 75.3225260,27.5908880,489 75.3224950,27.5908290,489 75.3222190,27.5902970,488 75.3220400,27.5900820,487 75.3219180,27.5899520,487 75.3217050,27.5897790,487 75.3214850,27.5895810,488 75.3213740,27.5894610,490 75.3212980,27.5893580,491 75.3212290,27.5892510,489 75.3212010,27.5891550,489 75.3210830,27.5885950,490 75.3210370,27.5884650,486 75.3210040,27.5883780,486 75.3209350,27.5882240,487 75.3208560,27.5880850,486 75.3207870,27.5880040,487 75.3207180,27.5879300,486 75.3206590,27.5878830,486 75.3205960,27.5878470,487 75.3200720,27.5875850,486 75.3199090,27.5875060,484 75.3198570,27.5874830,483 75.3196460,27.5873870,483 75.3190890,27.5871910,484 75.3190080,27.5871340,484 75.3187550,27.5868920,487 75.3182850,27.5864070,492 75.3181810,27.5863250,494 75.3180690,27.5862370,494 75.3179770,27.5861510,495 75.3178820,27.5860510,495 75.3178430,27.5859870,494 75.3178030,27.5859010,494 75.3177210,27.5856060,491 75.3176390,27.5852770,490 75.3175560,27.5849830,488 75.3175100,27.5847960,487 75.3174430,27.5845760,484 75.3173460,27.5842310,484 75.3173350,27.5841900,485 75.3172750,27.5839560,484 75.3172620,27.5838490,485 75.3172640,27.5837250,486 75.3172721,27.5834911,487 75.3172730,27.5834670,487 75.3172670,27.5833910,486 75.3172580,27.5833480,486 75.3172450,27.5833100,486 75.3172280,27.5832810,486 75.3172020,27.5832400,486 75.3171610,27.5831840,486 75.3171080,27.5831240,487 75.3170660,27.5830780,487 75.3170290,27.5830450,487 75.3169900,27.5830090,487 75.3169390,27.5829670,487 75.3168610,27.5828980,487 75.3167320,27.5828070,487 75.3166150,27.5827060,487 75.3165420,27.5826200,486 75.3164690,27.5825160,485 75.3163970,27.5823750,484 75.3163320,27.5822300,483 75.3163040,27.5821270,483 75.3162740,27.5819890,482 75.3162530,27.5818520,481 75.3162660,27.5811480,480 75.3162760,27.5802670,479 75.3162890,27.5801690,479 75.3163189,27.5800550,479 75.3163620,27.5799420,480 75.3167969,27.5792460,479 75.3168360,27.5791330,479 75.3168560,27.5790190,480 75.3169700,27.5781140,479 75.3170690,27.5782490,479 75.3171660,27.5783520,478 75.3172350,27.5784180,478 75.3173310,27.5785050,478 75.3179849,27.5789810,477 75.3188110,27.5795830,475 75.3194790,27.5800880,479 75.3196210,27.5802020,479 75.3201290,27.5806350,482 75.3209790,27.5813810,481 75.3217400,27.5820520,481 75.3225060,27.5827290,481 75.3235840,27.5836710,481 75.3238400,27.5838860,479 75.3242120,27.5842060,477 75.3246340,27.5845740,479 75.3248710,27.5847690,480 75.3251820,27.5850410,480 75.3258400,27.5856240,480 75.3266010,27.5862950,483 75.3269720,27.5866480,480 75.3271630,27.5868490,480 75.3272640,27.5869510,480 75.3273750,27.5870830,481 75.3275370,27.5873250,482 75.3277040,27.5876220,483 75.3278110,27.5877970,482 75.3278920,27.5879560,483 75.3281490,27.5884610,484 75.3283270,27.5888010,482 75.3284020,27.5889370,483 75.3284330,27.5890080,483 75.3284550,27.5890780,483 75.3284910,27.5892200,484 75.3285820,27.5897570,486 75.3286020,27.5898010,486 75.3286280,27.5898230,485 75.3286710,27.5898410,485 75.3286710,27.5898410,485 75.3287299,27.5898510,486 75.3291179,27.5898520,486 75.3291700,27.5898630,486 75.3292120,27.5898790,486 75.3294279,27.5900690,487 75.3294750,27.5900790,487 75.3295170,27.5900780,487 75.3299130,27.5899670,486 75.3301660,27.5898930,485 75.3302220,27.5898760,485 75.3303650,27.5898400,485 75.3304239,27.5898400,485 75.3304630,27.5898550,485 75.3304900,27.5898790,485 75.3305060,27.5899090,485 75.3305309,27.5900060,486 75.3305630,27.5901780,486 75.3305880,27.5903060,486 75.3306190,27.5905870,487 75.3306250,27.5906080,487 75.3306350,27.5906250,487 75.3306489,27.5906370,487 75.3306640,27.5906410,487 75.3306970,27.5906410,487 75.3308100,27.5906290,487 75.3308799,27.5906230,488 75.3309270,27.5906280,488 75.3309589,27.5906390,488 75.3310030,27.5906630,488 75.3310290,27.5906840,488 75.3310599,27.5907190,488 75.3311049,27.5908130,488 75.3311510,27.5908970,488 75.3311839,27.5909610,489 75.3312480,27.5910580,489 75.3313150,27.5911210,489 75.3314230,27.5911850,489 75.3315100,27.5912080,489 75.3315900,27.5912180,490 75.3317129,27.5911850,489 75.3318260,27.5911530,489 75.3320750,27.5910850,490 75.3326079,27.5909880,490 75.3338690,27.5908170,491 75.3348360,27.5906720,491 75.3352190,27.5906160,490 75.3354270,27.5905740,490 75.3355750,27.5905530,490 75.3356910,27.5905400,490 75.3358300,27.5905280,490 75.3361539,27.5905200,491 75.3364810,27.5905100,492 75.3396600,27.5904330,488 75.3409280,27.5904330,489 75.3417830,27.5904040,492 75.3429040,27.5904030,493 75.3438790,27.5903930,493 75.3447300,27.5903950,497 75.3459960,27.5903720,499 75.3468740,27.5903760,494 75.3473590,27.5903660,496 75.3479560,27.5903480,500 75.3485400,27.5903460,498 75.3488490,27.5903360,498 75.3490620,27.5903120,497 75.3492500,27.5902650,497 75.3495320,27.5901550,497 75.3497900,27.5900620,498 75.3501400,27.5899410,497 75.3506480,27.5897810,496 75.3511640,27.5896010,496 75.3515750,27.5894620,496 75.3518519,27.5893710,495 75.3519970,27.5893220,494 75.3521030,27.5892920,494 75.3521920,27.5892760,493 75.3523490,27.5892580,493 75.3524380,27.5892550,493 75.3525340,27.5892620,493 75.3526790,27.5892800,493 75.3528210,27.5893070,493 75.3530830,27.5893490,493 75.3532400,27.5893650,493 75.3533470,27.5893820,493 75.3534470,27.5894030,494 75.3535730,27.5894470,493 75.3537860,27.5895390,493 75.3543090,27.5898250,497 75.3544310,27.5898780,501 75.3545630,27.5899160,501 75.3546990,27.5899360,501 75.3549230,27.5899530,499 75.3551210,27.5899540,498 75.3552450,27.5899560,497 75.3555280,27.5899610,496 75.3557900,27.5899550,495 75.3559720,27.5899560,495 75.3561890,27.5899530,495 75.3563820,27.5899570,494 75.3567920,27.5899910,493 75.3569670,27.5900000,492 75.3571210,27.5900190,491 75.3572900,27.5900230,490 75.3574919,27.5899970,490 75.3575470,27.5899730,490 75.3576010,27.5899140,490 75.3576240,27.5898600,490 75.3576360,27.5897610,490 75.3576380,27.5894460,490 75.3581060,27.5894530,491 75.3584939,27.5894580,489 75.3584850,27.5893710,489 75.3584190,27.5889830,490 75.3584690,27.5889900,490 75.3585219,27.5889920,490 75.3586180,27.5889860,490 75.3587079,27.5889750,490 75.3587800,27.5889520,490 75.3589000,27.5889000,491 75.3590000,27.5888670,491 75.3591200,27.5888420,491 75.3592170,27.5888240,492 75.3593120,27.5888170,492 75.3593829,27.5888110,493 75.3597379,27.5888090,494 75.3597900,27.5887970,494 75.3598330,27.5887780,493 75.3601709,27.5886500,495 75.3603050,27.5886110,496 75.3604070,27.5886030,497 75.3605660,27.5886000,498 75.3607150,27.5885920,498 75.3608330,27.5885730,500 75.3609770,27.5885310,501 75.3611860,27.5884740,499 75.3615600,27.5883850,503 75.3619260,27.5883310,509 75.3620940,27.5883120,506 75.3622490,27.5882990,506 75.3623620,27.5882850,505 75.3624950,27.5882650,504 75.3626500,27.5882360,502 75.3628350,27.5882210,501 75.3631990,27.5882080,502 75.3635680,27.5882080,503 75.3638870,27.5882150,502 75.3642270,27.5882350,501 75.3645720,27.5882850,500 75.3649180,27.5883560,502 75.3651930,27.5884310,500 75.3653790,27.5885100,502 75.3655900,27.5886340,504 75.3658720,27.5888730,503 75.3661530,27.5891670,507 75.3663950,27.5894090,507 75.3664670,27.5894840,507 75.3665220,27.5895700,509 75.3665720,27.5896830,505 75.3666250,27.5898490,506 75.3668140,27.5905080,502 75.3669970,27.5912050,501 75.3671560,27.5918120,503 75.3672380,27.5921270,501 75.3672700,27.5922450,501 75.3673050,27.5923670,501 75.3673630,27.5924900,501 75.3674380,27.5926080,501 75.3676900,27.5928960,500 75.3680370,27.5932530,501 75.3681129,27.5933270,502 75.3681960,27.5933880,502 75.3682920,27.5934250,504 75.3684280,27.5934470,504 75.3715129,27.5936700,510 75.3733670,27.5938830,512 75.3740490,27.5939490,508 75.3761650,27.5941910,512 75.3763440,27.5941870,511 75.3764870,27.5941630,511 75.3766690,27.5941260,510 75.3784920,27.5936620,510 75.3787300,27.5936020,510 75.3790960,27.5935200,513 75.3794770,27.5934490,510 75.3797590,27.5933830,510 75.3799949,27.5933380,509 75.3801290,27.5933290,509 75.3802539,27.5933460,509 75.3804120,27.5933830,510 75.3805970,27.5934410,509 75.3808540,27.5935640,509 75.3810200,27.5936260,508 75.3811570,27.5936590,509 75.3812770,27.5936730,509 75.3814150,27.5936710,509 75.3816510,27.5936500,508 75.3825370,27.5935190,507 75.3829910,27.5934460,506 75.3831800,27.5934300,506 75.3833130,27.5934300,506 75.3834399,27.5934520,505 75.3836250,27.5935070,506 75.3842570,27.5937160,504 75.3848170,27.5939020,503 75.3850550,27.5939800,503 75.3866040,27.5944430,502 75.3867870,27.5944850,502 75.3870479,27.5945390,503 75.3872290,27.5945630,504 75.3874900,27.5945870,504 75.3879160,27.5946290,504 75.3886660,27.5946880,501 75.3894590,27.5947780,503 75.3895880,27.5947950,503 75.3897690,27.5948250,504 75.3899650,27.5948630,504 75.3903780,27.5949330,503 75.3911270,27.5950790,503 75.3922190,27.5952570,504 75.3932610,27.5954460,502 75.3943020,27.5956330,498 75.3954220,27.5958160,502 75.3958210,27.5958860,500 75.3961379,27.5959480,499 75.3963320,27.5960000,499 75.3965000,27.5960580,499 75.3967140,27.5961410,499 75.3970980,27.5962990,498 75.3975400,27.5964690,497 75.3979650,27.5966350,497 75.3981850,27.5967210,497 75.3983990,27.5968010,496 75.3987010,27.5969270,496 75.3989380,27.5970180,498 75.3991740,27.5971020,500 75.3993940,27.5971690,501 75.3996760,27.5972430,502 75.4000590,27.5973110,501 75.4005710,27.5973920,501 75.4010100,27.5974670,503 75.4015019,27.5975550,501 75.4022520,27.5977080,500 75.4026780,27.5977790,502 75.4034160,27.5979120,504 75.4038030,27.5979830,504 75.4040300,27.5980210,505 75.4041560,27.5980420,505 75.4051800,27.5982240,503 75.4071340,27.5985360,501 75.4073180,27.5985750,499 75.4074960,27.5986250,500 75.4077090,27.5987090,502 75.4083950,27.5990530,505 75.4088869,27.5993220,504 75.4093130,27.5995460,503 75.4100110,27.5999130,506 75.4102640,27.6000460,505 75.4103570,27.6001060,504 75.4104090,27.6001560,504 75.4104350,27.6002050,504 75.4104470,27.6002600,504 75.4104520,27.6003360,504 75.4104470,27.6005380,507 75.4104450,27.6007410,508 75.4104320,27.6014080,511 75.4104490,27.6015720,511 75.4104680,27.6016590,511 75.4105090,27.6017430,509 75.4105420,27.6017800,509 75.4106180,27.6018340,509 75.4112940,27.6021180,509 75.4115310,27.6022250,509 75.4119040,27.6023940,507 75.4124320,27.6026600,508 75.4125390,27.6027120,508 75.4126800,27.6027800,508 75.4128580,27.6028540,510 75.4129890,27.6031030,512 75.4131880,27.6033920,514 75.4132350,27.6034590,514 75.4133060,27.6035280,513 75.4133530,27.6035750,515 75.4133890,27.6036410,515 75.4134190,27.6037050,516 75.4134500,27.6037500,516 75.4134909,27.6037870,516 75.4135370,27.6038160,516 75.4136220,27.6038480,517 75.4139390,27.6038590,516 75.4139290,27.6040200,519 75.4139350,27.6040650,518 75.4139579,27.6040900,518 75.4140020,27.6041000,518 75.4142230,27.6041330,517 75.4142660,27.6041260,517 75.4142970,27.6041050,515 75.4143200,27.6040650,515 75.4143270,27.6041720,517 75.4146360,27.6041290,514 75.4146630,27.6041190,514 75.4146820,27.6041070,514 75.4146920,27.6040890,514 75.4146890,27.6040620,514 75.4148610,27.6040190,514 75.4149990,27.6039930,513 75.4150270,27.6039840,513 75.4150520,27.6039700,513 75.4151289,27.6039160,513 75.4151680,27.6038970,512 75.4152170,27.6038830,512 75.4152730,27.6038760,512 75.4154430,27.6038860,511 75.4155849,27.6038890,510 75.4158320,27.6038780,509 75.4162319,27.6038390,508 75.4163270,27.6038440,508 75.4164090,27.6038610,508 75.4165249,27.6039210,508 75.4166060,27.6039550,508 75.4167040,27.6039820,508 75.4168350,27.6040000,508 75.4169700,27.6040070,508 75.4171120,27.6039900,507 75.4176440,27.6038590,504 75.4179230,27.6037900,503 75.4180270,27.6038680,504 75.4180740,27.6039520,504 75.4180970,27.6040100,504 75.4182280,27.6043450,503 75.4184480,27.6049040,505 75.4185070,27.6050010,507 75.4185700,27.6050780,508 75.4186530,27.6051400,508 75.4189550,27.6053120,507 75.4192230,27.6054520,506 75.4193880,27.6055170,504 75.4196350,27.6055990,503 75.4199890,27.6056970,505 75.4205150,27.6057940,506 75.4207349,27.6058280,505 75.4210250,27.6058400,503 75.4211890,27.6058190,501 75.4215390,27.6057610,503 75.4222610,27.6056300,501 75.4241090,27.6053460,503 75.4246010,27.6052700,502 75.4248400,27.6052380,501 75.4249860,27.6052480,500 75.4251430,27.6052890,500 75.4252850,27.6053570,500 75.4254510,27.6054730,500 75.4266340,27.6063580,501 75.4274350,27.6069670,503 75.4275569,27.6070920,503 75.4276620,27.6072500,503 75.4277510,27.6075050,502 75.4279500,27.6081660,503 75.4280820,27.6086030,505 75.4281640,27.6088590,505 75.4283010,27.6092890,506 75.4283520,27.6093730,507 75.4282990,27.6094690,507 75.4282740,27.6095440,508 75.4282659,27.6096310,509 75.4282850,27.6097630,509 75.4283660,27.6102280,507 75.4284380,27.6105560,509 75.4284680,27.6106250,509 75.4285070,27.6106700,509 75.4285590,27.6107040,511 75.4286340,27.6107310,511 75.4290000,27.6107800,510 75.4291030,27.6108040,509 75.4294380,27.6109460,512 75.4295210,27.6109740,512 75.4300620,27.6111010,512 75.4301590,27.6111380,510 75.4306469,27.6113720,508 75.4307280,27.6114320,508 75.4307730,27.6114830,506 75.4308860,27.6116930,509 75.4309360,27.6117840,507 75.4309950,27.6118680,507 75.4310630,27.6119350,510 75.4311560,27.6120030,508 75.4315780,27.6122510,509 75.4317080,27.6123550,507 75.4318220,27.6124820,506 75.4320580,27.6128680,507 75.4321030,27.6129570,507 75.4321700,27.6130890,507 75.4322750,27.6132830,510 75.4323790,27.6134220,508 75.4325400,27.6135930,510 75.4330660,27.6141110,510 75.4331600,27.6141820,508 75.4333120,27.6142530,511 75.4334650,27.6143290,509 75.4336129,27.6144200,511 75.4337580,27.6145340,512 75.4339750,27.6147640,511 75.4341980,27.6151060,512 75.4342590,27.6151870,512 75.4343640,27.6152850,511 75.4344710,27.6154180,512 75.4345540,27.6156050,511 75.4347049,27.6162640,514 75.4347550,27.6163900,516 75.4348410,27.6165110,518 75.4350690,27.6168670,514 75.4355490,27.6177470,517 75.4355820,27.6178660,513 75.4356570,27.6181980,515 75.4357960,27.6187740,515 75.4358419,27.6188900,515 75.4361640,27.6194770,520 75.4362249,27.6195530,524 75.4363030,27.6196170,520 75.4364770,27.6197500,517 75.4367000,27.6200090,517 75.4371560,27.6205990,516 75.4372870,27.6208050,514 75.4374190,27.6210910,516 75.4374890,27.6213950,513 75.4375500,27.6215830,514 75.4377570,27.6221100,515 75.4378800,27.6223380,512 75.4379460,27.6225160,513 75.4380340,27.6229050,513 75.4381060,27.6230870,514 75.4382140,27.6233650,511 75.4382679,27.6236170,510 75.4382970,27.6238770,510 75.4383320,27.6239720,507 75.4383880,27.6240050,507 75.4384740,27.6240190,507 75.4388580,27.6240740,504 75.4389060,27.6241000,504 75.4389340,27.6241390,504 75.4390350,27.6243710,505 75.4391590,27.6247740,507 75.4393170,27.6251340,508 75.4393790,27.6253210,507 75.4394340,27.6256290,507 75.4394180,27.6257230,507 75.4393700,27.6258450,507 75.4393520,27.6259200,507 75.4393620,27.6259790,507 75.4393939,27.6260540,508 75.4395520,27.6263160,510 75.4395849,27.6264000,510 75.4397030,27.6267690,510 75.4397539,27.6268740,509 75.4397720,27.6269500,509 75.4397670,27.6272270,507 75.4397140,27.6275050,506 75.4397110,27.6276320,506 75.4397369,27.6278850,508 75.4397670,27.6280320,509 75.4398150,27.6281840,510 75.4400680,27.6288450,511 75.4403030,27.6293280,511 75.4405020,27.6297100,511 75.4405610,27.6298540,511 75.4406330,27.6300840,511 75.4408430,27.6309450,508 75.4408340,27.6310030,508 75.4408119,27.6310430,508 75.4407800,27.6310810,507 75.4407240,27.6311060,507 75.4404010,27.6311980,508 75.4402800,27.6312440,509 75.4400990,27.6313340,510 75.4398350,27.6315160,512 75.4396890,27.6317040,511 75.4396030,27.6318700,512 75.4395739,27.6320320,511 75.4395289,27.6323870,512 75.4395080,27.6326570,512 75.4395170,27.6328130,511 75.4395650,27.6329710,511 75.4396639,27.6331250,510 75.4402030,27.6338130,511 75.4404260,27.6340740,511 75.4408230,27.6346210,509 75.4408760,27.6347160,509 75.4409010,27.6348320,509 75.4408790,27.6351580,510 75.4408790,27.6352840,511 75.4408980,27.6355050,512 75.4411180,27.6364390,508 75.4411960,27.6366380,508 75.4415340,27.6372680,508 75.4420320,27.6381790,511 75.4420460,27.6382040,511 75.4424290,27.6388060,513 75.4425690,27.6390260,514 75.4426710,27.6391090,515 75.4427810,27.6391520,516 75.4429070,27.6391690,516 75.4433310,27.6391550,515 75.4435720,27.6391740,514 75.4441730,27.6392380,512 75.4445590,27.6392420,511 75.4449400,27.6392190,510 75.4451629,27.6391880,510 75.4458220,27.6390100,510 75.4459750,27.6389480,510 75.4460800,27.6388690,510 75.4461770,27.6387720,509 75.4462410,27.6386670,508 75.4463240,27.6384370,507 75.4465280,27.6376880,505 75.4466350,27.6377780,507 75.4467890,27.6378520,508 75.4469960,27.6379240,511 75.4475840,27.6380750,509 75.4483489,27.6384840,507 75.4486940,27.6387490,509 75.4488910,27.6388230,508 75.4502470,27.6391890,508 75.4506360,27.6393550,509 75.4513610,27.6398000,510 75.4517280,27.6399420,508 75.4519030,27.6400200,507 75.4519840,27.6400900,507 75.4521730,27.6403960,507 75.4523700,27.6410340,511 75.4526240,27.6415570,512 75.4530790,27.6421310,512 75.4533760,27.6423930,510 75.4535040,27.6425840,510 75.4536080,27.6429030,509 75.4538380,27.6433660,510 75.4540120,27.6439820,512 75.4539400,27.6441400,512 75.4539400,27.6442300,512 75.4541640,27.6444570,512 75.4544000,27.6448930,512 75.4550320,27.6458510,510 75.4550540,27.6460400,511 75.4550600,27.6460870,511 75.4552620,27.6464980,509 75.4553150,27.6467210,510 75.4553440,27.6468430,511 75.4555180,27.6473180,514 75.4552820,27.6475150,519 75.4552439,27.6488450,526 75.4550299,27.6491590,531 75.4549810,27.6493870,529 75.4546110,27.6495060,527 75.4543590,27.6495100,526 75.4542249,27.6494530,528 75.4540480,27.6493110,529 75.4539350,27.6491920,529 75.4537740,27.6490300,528 75.4535810,27.6488260,525 75.4533670,27.6486640,525 75.4531570,27.6484790,524 75.4529430,27.6482990,527 75.4528030,27.6481990,526 75.4520740,27.6477590,521 75.4518830,27.6476100,522 75.4516900,27.6475830,521 75.4516070,27.6475810,521 75.4514970,27.6476020,520 75.4513149,27.6476970,520 75.4504510,27.6481540,519 75.4502100,27.6482770,519 75.4502280,27.6484550,519 75.4502040,27.6491730,521 75.4501210,27.6510120,521 75.4500730,27.6527530,527 75.4500300,27.6541240,530 75.4499790,27.6555260,534 75.4499390,27.6570610,537 75.4499900,27.6576710,537 75.4500780,27.6584860,535 75.4500810,27.6587810,535 75.4500590,27.6589850,535 75.4500429,27.6591300,534 75.4500060,27.6592750,533 75.4500490,27.6593820,533 75.4502820,27.6598380,534 75.4503840,27.6600420,534 75.4504050,27.6601540,533 75.4504620,27.6602960,533 75.4505850,27.6604080,533 75.4506920,27.6604860,534 75.4507760,27.6605860,533 75.4507859,27.6606070,533 75.4508479,27.6607340,537 75.4508910,27.6608500,537 75.4509260,27.6612820,532 75.4509470,27.6613170,532 75.4510600,27.6615060,528 75.4510600,27.6616530,528 75.4511000,27.6618000,528 75.4511750,27.6620120,529 75.4513710,27.6626100,529 75.4518270,27.6629860,521 75.4520469,27.6634940,517 75.4522990,27.6639550,519 75.4529320,27.6651570,513 75.4533340,27.6658510,510 75.4534709,27.6660760,510 75.4535060,27.6663830,511 75.4534870,27.6668630,511 75.4535280,27.6672310,511 75.4536880,27.6675470,509 75.4539300,27.6683830,505 75.4541390,27.6690100,502 75.4543480,27.6695210,502 75.4545310,27.6698300,502 75.4549140,27.6702170,502 75.4553540,27.6708080,501 75.4558020,27.6712620,503 75.4560939,27.6716210,499 75.4565400,27.6722260,496 75.4568050,27.6726730,492 75.4568430,27.6728580,491 75.4568720,27.6730700,492 75.4568860,27.6732170,491 75.4573310,27.6735590,489 75.4577730,27.6738440,480 75.4578669,27.6739980,479 75.4579260,27.6742000,480 75.4579640,27.6744090,484 75.4581380,27.6749460,491 75.4583500,27.6752310,490 75.4586510,27.6756920,487 75.4590020,27.6761840,486 75.4591090,27.6764520,485 75.4591790,27.6766870,484 75.4592670,27.6771220,483 75.4595380,27.6778350,479 75.4597450,27.6782000,478 75.4598120,27.6784370,477 75.4598520,27.6785780,476 75.4598920,27.6788800,474 75.4600050,27.6790750,474 75.4600670,27.6791320,474 75.4601689,27.6792270,475 75.4602630,27.6793380,474 75.4602710,27.6794170,474 75.4601900,27.6795350,474 75.4599889,27.6797370,474 75.4595920,27.6802650,472 75.4591839,27.6807230,469 75.4591200,27.6809010,468 75.4591070,27.6810720,468 75.4590820,27.6812070,468 75.4589860,27.6813950,468 75.4588280,27.6815470,469 75.4585940,27.6818420,469 75.4582030,27.6823550,468 75.4577820,27.6826470,470 75.4575270,27.6827990,472 75.4572320,27.6829370,473 75.4570600,27.6830080,474 75.4569290,27.6830720,474 75.4568450,27.6831690,474 75.4567620,27.6833210,473 75.4566020,27.6838070,476 75.4569620,27.6841810,476 75.4582439,27.6857500,474 75.4599140,27.6877170,476 75.4602950,27.6880590,475 75.4604250,27.6882780,477 75.4613229,27.6896970,471 75.4616360,27.6899790,473 75.4618990,27.6901820,473 75.4628360,27.6906760,466 75.4635070,27.6909170,468 75.4650570,27.6914180,466 75.4655600,27.6917000,470 75.4658470,27.6918960,472 75.4663740,27.6924620,469 75.4665600,27.6928230,470 75.4671650,27.6938760,474 75.4678230,27.6949090,473 75.4684750,27.6958240,470 75.4689990,27.6966140,459 75.4692600,27.6972960,456 75.4694300,27.6977690,460 75.4696330,27.6980840,460 75.4700930,27.6986680,460 75.4703200,27.6988780,460 75.4707500,27.6991460,461 75.4713450,27.6995160,457 75.4715300,27.6996870,456 75.4716370,27.6998790,454 75.4716640,27.7000380,455 75.4716140,27.7002440,456 75.4715329,27.7006200,461 75.4715570,27.7007610,462 75.4716190,27.7008980,462 75.4718490,27.7011910,463 75.4719090,27.7013370,464 75.4719170,27.7016280,462 75.4718670,27.7019030,461 75.4718040,27.7020180,458 75.4715280,27.7023900,455 75.4714650,27.7025240,455 75.4714340,27.7028040,455 75.4714700,27.7035870,455 75.4714730,27.7038460,452 75.4716040,27.7039840,451 75.4726190,27.7044350,450 75.4727360,27.7045550,450 75.4728850,27.7048130,449 75.4738190,27.7066520,448 75.4743930,27.7078950,449 75.4744479,27.7080184,449</coordinates>
   </LineString>
  </Placemark>
  <Folder>
   <name>Laps</name>
   <description>Laps,start and end split recorder in the activity.</description>
   <Placemark>
    <name>Start</name>
    <description>&lt;table width = &quot;320&quot;&gt;&lt;tr&gt;&lt;td colspan=&quot;2&quot;&gt; &lt;/td&gt;&lt;/tr&gt;&lt;tr&gt;&lt;td colspan=&quot;2&quot;&gt;2026-07-18 07:58:05&lt;/td&gt;&lt;/tr&gt;&lt;tr&gt;&lt;td colspan=&quot;2&quot;&gt;&lt;/td&gt;&lt;/tr&gt;&lt;tr&gt;&lt;td&gt;Activity Type:&lt;/td&gt;&lt;td&gt;cycling&lt;/td&gt;&lt;/tr&gt;&lt;tr&gt;&lt;td&gt;Event type:&lt;/td&gt;&lt;td&gt;uncategorized&lt;/td&gt;&lt;/tr&gt;&lt;tr&gt;&lt;td&gt;GetDistance:&lt;/td&gt;&lt;td&gt;55447Meters&lt;/td&gt;&lt;/tr&gt;&lt;tr&gt;&lt;td&gt;Time :&lt;/td&gt;&lt;td&gt;0&lt;/td&gt;&lt;/tr&gt;&lt;tr&gt;&lt;td&gt;Calorie :&lt;/td&gt;&lt;td&gt;&lt;/td&gt;&lt;/tr&gt;&lt;tr&gt;&lt;td colspan=&quot;2&quot;&gt;&lt;/td&gt;&lt;/tr&gt;&lt;/table&gt;</description>
    <Style>
     <IconStyle>
      <scale>1.0</scale>
      <Icon>
       <href>http://maps.google.com/mapfiles/kml/paddle/grn-square.png</href>
      </Icon>
      <hotSpot x="0.45" xuints="fraction" y="0.0" yuints="fraction"/>
     </IconStyle>
    </Style>
    <Point>
     <coordinates>75.4744669 27.7080605</coordinates>
    </Point>
   </Placemark>
   <Placemark>
    <name>End</name>
    <description>&lt;table width = &quot;320&quot;&gt;&lt;tr&gt;&lt;td colspan=&quot;2&quot;&gt; &lt;/td&gt;&lt;/tr&gt;&lt;tr&gt;&lt;td colspan=&quot;2&quot;&gt;2026-07-18 07:58:05&lt;/td&gt;&lt;/tr&gt;&lt;tr&gt;&lt;td colspan=&quot;2&quot;&gt;&lt;/td&gt;&lt;/tr&gt;&lt;tr&gt;&lt;td&gt;Activity Type:&lt;/td&gt;&lt;td&gt;cycling&lt;/td&gt;&lt;/tr&gt;&lt;tr&gt;&lt;td&gt;Event type:&lt;/td&gt;&lt;td&gt;uncategorized&lt;/td&gt;&lt;/tr&gt;&lt;tr&gt;&lt;td&gt;GetDistance:&lt;/td&gt;&lt;td&gt;55447Meters&lt;/td&gt;&lt;/tr&gt;&lt;tr&gt;&lt;td&gt;Time :&lt;/td&gt;&lt;td&gt;0&lt;/td&gt;&lt;/tr&gt;&lt;tr&gt;&lt;td&gt;Calorie :&lt;/td&gt;&lt;td&gt;&lt;/td&gt;&lt;/tr&gt;&lt;tr&gt;&lt;td colspan=&quot;2&quot;&gt;&lt;/td&gt;&lt;/tr&gt;&lt;/table&gt;</description>
    <Style>
     <IconStyle>
      <scale>1.0</scale>
      <Icon>
       <href>http://maps.google.com/mapfiles/kml/paddle/red-square.png</href>
      </Icon>
      <hotSpot x="0.45" xuints="fraction" y="0.0" yuints="fraction"/>
     </IconStyle>
    </Style>
    <Point>
     <coordinates>75.4744479 27.7080184</coordinates>
    </Point>
   </Placemark>
  </Folder>
 </Folder>
</kml>
